{"type": "FeatureCollection", "features": [{"type": "Feature", "properties": {"id": "crossbronx-01", "layer": "road", "label": "Cross-Bronx 西至東北側路緣", "confidence": "medium", "method": "manual aerial interpretation; roof projection, not surveyed footprint", "source_year": "1996"}, "geometry": {"type": "LineString", "coordinates": [[-73.88710114471009, 40.84061423278413], [-73.88615921046456, 40.840143749083815], [-73.88503225342077, 40.83963511429978], [-73.88398939764895, 40.83908832755389], [-73.8829297216227, 40.838503387902065], [-73.88187004559647, 40.837956591820685], [-73.88069262778954, 40.837460656590515], [-73.879532030237, 40.83709188183467], [-73.87827051115814, 40.83681212030659], [-73.87672304775477, 40.83660865663551], [-73.87505784257067, 40.8364687749994], [-73.87322443484274, 40.836379759259124], [-73.8714078473692, 40.83631617651429]]}}, {"type": "Feature", "properties": {"id": "crossbronx-02", "layer": "road", "label": "Cross-Bronx 南側路緣", "confidence": "medium", "method": "manual aerial interpretation; roof projection, not surveyed footprint", "source_year": "1996"}, "geometry": {"type": "LineString", "coordinates": [[-73.88755529157848, 40.84061423278413], [-73.88641151428033, 40.840003874907275], [-73.88518363571023, 40.8394189433347], [-73.88414077993839, 40.83884672267123], [-73.88309792416655, 40.83826178088739], [-73.8820382481403, 40.837727699098565], [-73.88087765058778, 40.837219045775335], [-73.8796497720177, 40.83685026967538], [-73.8783209719213, 40.836595940135325], [-73.87682396928106, 40.83640519233996], [-73.8751251235882, 40.83627802683812], [-73.87325807535152, 40.83616357767791], [-73.8714078473692, 40.83607456152782]]}}, {"type": "Feature", "properties": {"id": "crossbronx-03", "layer": "road", "label": "西北聯絡道可見邊緣", "confidence": "medium", "method": "manual aerial interpretation; roof projection, not surveyed footprint", "source_year": "1996"}, "geometry": {"type": "LineString", "coordinates": [[-73.8915921526308, 40.83627802683812], [-73.89019607151687, 40.83700286693107], [-73.8888672714205, 40.83767683394187], [-73.88752165106972, 40.83845252334057], [-73.88617603071894, 40.83910104357592], [-73.88484723062255, 40.83953338687462], [-73.88350161027178, 40.839622398380186], [-73.88224009119293, 40.83968597795383], [-73.88116359491231, 40.83988943217967], [-73.88064216702638, 40.84004202243926]]}}, {"type": "Feature", "properties": {"id": "crossbronx-04", "layer": "road", "label": "西北聯絡道可見邊緣", "confidence": "medium", "method": "manual aerial interpretation; roof projection, not surveyed footprint", "source_year": "1996"}, "geometry": {"type": "LineString", "coordinates": [[-73.8915921526308, 40.836023695102675], [-73.89001104871865, 40.83686298612677], [-73.88868224862226, 40.83757510351139], [-73.88735344852586, 40.83828721324619], [-73.8860078281751, 40.83893573509885], [-73.8846958483331, 40.83936807947575], [-73.883467969763, 40.83944437524954], [-73.88217281017538, 40.83950795499395], [-73.88107949364037, 40.83972412566874], [-73.88064216702638, 40.83988943217967]]}}, {"type": "Feature", "properties": {"id": "crossbronx-05", "layer": "road", "label": "Sheridan 西側路緣", "confidence": "medium", "method": "manual aerial interpretation; roof projection, not surveyed footprint", "source_year": "1996"}, "geometry": {"type": "LineString", "coordinates": [[-73.88250921526308, 40.83808375410258], [-73.88234101271924, 40.837587819823746], [-73.88230737221046, 40.836952001218215], [-73.88225691144731, 40.83625259370849], [-73.88234101271924, 40.835578612217745], [-73.88274469882447, 40.834739304933024], [-73.88329976721916, 40.833989006092594], [-73.88373709383318, 40.83318783015989], [-73.88409031917523, 40.832348492608176], [-73.88461174706116, 40.83140740453589], [-73.88494815214887, 40.830644350347065], [-73.88528455723655, 40.82977954498399], [-73.8853518382541, 40.82938529173718]]}}, {"type": "Feature", "properties": {"id": "crossbronx-06", "layer": "road", "label": "Sheridan 東側路緣", "confidence": "medium", "method": "manual aerial interpretation; roof projection, not surveyed footprint", "source_year": "1996"}, "geometry": {"type": "LineString", "coordinates": [[-73.88220645068415, 40.83794387557906], [-73.88200460763154, 40.83734620947204], [-73.88192050635962, 40.83664680612141], [-73.88190368610523, 40.83597282863849], [-73.88205506839469, 40.835349711284785], [-73.88242511399116, 40.834637569994655], [-73.88294654187709, 40.83388727000286], [-73.88333340772793, 40.83312424435371], [-73.88375391408755, 40.832246754001105], [-73.88417442044717, 40.83134381702223], [-73.88454446604362, 40.83055532678635], [-73.88488087113133, 40.829741391546435], [-73.88494815214887, 40.82938529173718]]}}, {"type": "Feature", "properties": {"id": "crossbronx-07", "layer": "road", "label": "1996 年匝道可見外緣", "confidence": "medium", "method": "manual aerial interpretation; roof projection, not surveyed footprint", "source_year": "1996"}, "geometry": {"type": "LineString", "coordinates": [[-73.88208870890347, 40.83817276755474], [-73.88153364050876, 40.83794387557906], [-73.88104585313161, 40.83802017299211], [-73.88059170626323, 40.83826178088739], [-73.88003663786853, 40.83833807793453], [-73.87958249100015, 40.83822363233089], [-73.87926290616684, 40.83794387557906], [-73.87912834413177, 40.837600536133664], [-73.8792965466756, 40.83733349311334], [-73.8796497720177, 40.8371936130067]]}}, {"type": "Feature", "properties": {"id": "crossbronx-08", "layer": "water", "label": "Bronx River 可辨識水域邊界", "confidence": "low", "method": "manual aerial interpretation; roof projection, not surveyed footprint", "source_year": "1996"}, "geometry": {"type": "LineString", "coordinates": [[-73.87625208063199, 40.84061423278413], [-73.87648756419337, 40.83983856868175], [-73.87705945284245, 40.839291783614144], [-73.87773226301785, 40.838834006600365], [-73.87818640988623, 40.83816005135461], [-73.87874147828092, 40.83738435853349], [-73.87949838972823, 40.83664680612141], [-73.88013755939484, 40.83616357767791], [-73.88064216702638, 40.83542601168359], [-73.88086083033339, 40.83479017234366], [-73.8812981569474, 40.83412889296105], [-73.88166820254385, 40.83342945566716], [-73.88193732661401, 40.83267914200305], [-73.88235783297361, 40.83200512418358], [-73.88276151907885, 40.83126751192534], [-73.88341750899986, 40.8305807621016], [-73.88387165586825, 40.83004661843223], [-73.88395575714017, 40.82938529173718]]}}, {"type": "Feature", "properties": {"id": "crossbronx-09", "layer": "water", "label": "Bronx River 可辨識水域邊界", "confidence": "low", "method": "manual aerial interpretation; roof projection, not surveyed footprint", "source_year": "1996"}, "geometry": {"type": "LineString", "coordinates": [[-73.87591567554429, 40.84061423278413], [-73.87613433885129, 40.83980042103272], [-73.87675668826353, 40.8391519076398], [-73.87746313894769, 40.83869412966003], [-73.87785000479853, 40.83807103788535], [-73.87838825293883, 40.83724447853417], [-73.87914516438614, 40.83648149152397], [-73.87980115430715, 40.835960112016345], [-73.88030576193869, 40.83528612755204], [-73.8805244252457, 40.83466300374386], [-73.88094493160531, 40.83396357208479], [-73.88131497720177, 40.83331500158927], [-73.88158410127193, 40.832577403903336], [-73.88200460763154, 40.831852515424075], [-73.882374653228, 40.831114901468084], [-73.88301382289463, 40.83041543237803], [-73.88348479001739, 40.82989400516496], [-73.88360253179809, 40.82938529173718]]}}, {"type": "Feature", "properties": {"id": "crossbronx-10", "layer": "roof", "label": "北側工業屋頂", "confidence": "medium", "method": "manual aerial interpretation; roof projection, not surveyed footprint", "source_year": "1996"}, "geometry": {"type": "Polygon", "coordinates": [[[-73.88010391888608, 40.83986400043561], [-73.87922926565807, 40.839622398380186], [-73.8794142884563, 40.839304499597176], [-73.88025530117552, 40.83953338687462], [-73.88010391888608, 40.83986400043561]]]}}, {"type": "Feature", "properties": {"id": "crossbronx-11", "layer": "roof", "label": "北側工業屋頂", "confidence": "medium", "method": "manual aerial interpretation; roof projection, not surveyed footprint", "source_year": "1996"}, "geometry": {"type": "Polygon", "coordinates": [[[-73.88023848092115, 40.83946980715462], [-73.87943110871069, 40.83924091965762], [-73.87966659227207, 40.838808574451356], [-73.88050760499131, 40.83903746344123], [-73.88023848092115, 40.83946980715462]]]}}, {"type": "Feature", "properties": {"id": "crossbronx-12", "layer": "roof", "label": "東北側工業屋頂", "confidence": "medium", "method": "manual aerial interpretation; roof projection, not surveyed footprint", "source_year": "1996"}, "geometry": {"type": "Polygon", "coordinates": [[[-73.87862373650023, 40.83864326524491], [-73.87759770098276, 40.83835079410053], [-73.8781023086143, 40.83751152191308], [-73.87909470362298, 40.83777856421622], [-73.87862373650023, 40.83864326524491]]]}}, {"type": "Feature", "properties": {"id": "crossbronx-13", "layer": "roof", "label": "西側工業屋頂", "confidence": "medium", "method": "manual aerial interpretation; roof projection, not surveyed footprint", "source_year": "1996"}, "geometry": {"type": "Polygon", "coordinates": [[[-73.88287926085954, 40.836672239099826], [-73.88232419246485, 40.836519641083036], [-73.88242511399116, 40.83620172741995], [-73.88301382289463, 40.83634160961955], [-73.88287926085954, 40.836672239099826]]]}}, {"type": "Feature", "properties": {"id": "crossbronx-14", "layer": "roof", "label": "西側工業屋頂", "confidence": "medium", "method": "manual aerial interpretation; roof projection, not surveyed footprint", "source_year": "1996"}, "geometry": {"type": "Polygon", "coordinates": [[[-73.882811979842, 40.835960112016345], [-73.88229055195607, 40.835807512360354], [-73.882374653228, 40.83560404560595], [-73.88289608111393, 40.8357566457303], [-73.882811979842, 40.835960112016345]]]}}, {"type": "Feature", "properties": {"id": "crossbronx-15", "layer": "roof", "label": "西南側屋頂", "confidence": "medium", "method": "manual aerial interpretation; roof projection, not surveyed footprint", "source_year": "1996"}, "geometry": {"type": "Polygon", "coordinates": [[[-73.88546958003478, 40.83364564616407], [-73.88499861291201, 40.83354390954744], [-73.88518363571023, 40.83308609284074], [-73.88563778257863, 40.83320054731381], [-73.88546958003478, 40.83364564616407]]]}}, {"type": "Feature", "properties": {"id": "crossbronx-16", "layer": "roof", "label": "西南側屋頂", "confidence": "medium", "method": "manual aerial interpretation; roof projection, not surveyed footprint", "source_year": "1996"}, "geometry": {"type": "Polygon", "coordinates": [[[-73.8852340964734, 40.83299707255845], [-73.88481359011378, 40.83288261773413], [-73.8850154331664, 40.83242479646104], [-73.8854527597804, 40.8325392520757], [-73.8852340964734, 40.83299707255845]]]}}, {"type": "Feature", "properties": {"id": "crossbronx-17", "layer": "roof", "label": "東南側工業屋頂", "confidence": "medium", "method": "manual aerial interpretation; roof projection, not surveyed footprint", "source_year": "1996"}, "geometry": {"type": "Polygon", "coordinates": [[[-73.87917880489492, 40.83342945566716], [-73.87879193904406, 40.83346760698255], [-73.87865737700899, 40.832717293750186], [-73.87907788336861, 40.83267914200305], [-73.87917880489492, 40.83342945566716]]]}}, {"type": "Feature", "properties": {"id": "crossbronx-18", "layer": "roof", "label": "東南側屋頂", "confidence": "medium", "method": "manual aerial interpretation; roof projection, not surveyed footprint", "source_year": "1996"}, "geometry": {"type": "Polygon", "coordinates": [[[-73.878438713702, 40.832030558942684], [-73.8779845668336, 40.83208142843162], [-73.87791728581607, 40.83180164575952], [-73.87838825293883, 40.83173805862394], [-73.878438713702, 40.832030558942684]]]}}, {"type": "Feature", "properties": {"id": "crossbronx-19", "layer": "roof", "label": "東南側屋頂", "confidence": "medium", "method": "manual aerial interpretation; roof projection, not surveyed footprint", "source_year": "1996"}, "geometry": {"type": "Polygon", "coordinates": [[[-73.88015437964923, 40.83280631440814], [-73.87978433405277, 40.8328444660821], [-73.87973387328961, 40.832564686629894], [-73.88008709863169, 40.8325011002261], [-73.88015437964923, 40.83280631440814]]]}}]}