{"type": "FeatureCollection", "features": [{"type": "Feature", "properties": {"layer": "pending", "label": "視窗北端及樹冠下輪廓待判讀", "method": "manual historical aerial interpretation"}, "geometry": {"type": "Polygon", "coordinates": [[[-73.88234101271924, 40.838706845757706], [-73.88234101271924, 40.838312645595245], [-73.88168502279824, 40.83794387557906], [-73.88134861771053, 40.83793115933502], [-73.88082718982461, 40.83818548375245], [-73.88005345812292, 40.83840165874007], [-73.88025530117552, 40.838249064704314], [-73.88032258219307, 40.83794387557906], [-73.87990207583347, 40.837956591820685], [-73.87958249100015, 40.83832536176611], [-73.87926290616684, 40.838706845757706], [-73.88234101271924, 40.838706845757706]]]}}, {"type": "Feature", "properties": {"layer": "pending", "label": "東北側街廓待逐棟判讀", "method": "manual historical aerial interpretation"}, "geometry": {"type": "Polygon", "coordinates": [[[-73.87756406047399, 40.838706845757706], [-73.87736221742138, 40.83838894258383], [-73.87761452123715, 40.838045605443604], [-73.87781636428976, 40.837587819823746], [-73.87731175665822, 40.837435223914575], [-73.87692489080737, 40.83715546383548], [-73.87645392368461, 40.83707916542719], [-73.87645392368461, 40.838706845757706], [-73.87756406047399, 40.838706845757706]]]}}, {"type": "Feature", "properties": {"layer": "land", "label": "河東側開放地／植被（非公園認定）", "method": "manual historical aerial interpretation"}, "geometry": {"type": "Polygon", "coordinates": [[[-73.87865737700899, 40.8356549123531], [-73.87790046556168, 40.83606184492519], [-73.87663894648284, 40.83641790887674], [-73.87830415166691, 40.83664680612141], [-73.879532030237, 40.83696471765009], [-73.88065898728077, 40.83730806038863], [-73.88096175185969, 40.83630345995802], [-73.88119723542107, 40.83564219566996], [-73.88139907847369, 40.83495549115869], [-73.87922926565807, 40.83495549115869], [-73.87865737700899, 40.8356549123531]]]}}, {"type": "Feature", "properties": {"layer": "land", "label": "道路間開放地／植被", "method": "manual historical aerial interpretation"}, "geometry": {"type": "Polygon", "coordinates": [[[-73.88198778737716, 40.837219045775335], [-73.88192050635962, 40.836519641083036], [-73.88213916966662, 40.83571849573214], [-73.881718663307, 40.83560404560595], [-73.88116359491231, 40.836392475800764], [-73.88082718982461, 40.83718089661872], [-73.88170184305262, 40.83752423823763], [-73.88208870890347, 40.837803996760414], [-73.88198778737716, 40.837219045775335]]]}}, {"type": "Feature", "properties": {"layer": "water", "label": "樹冠下可辨識河流範圍", "method": "manual historical aerial interpretation"}, "geometry": {"type": "Polygon", "coordinates": [[[-73.87958249100015, 40.83832536176611], [-73.87988525557907, 40.83790572683963], [-73.88023848092115, 40.83749880558609], [-73.88057488600884, 40.83707916542719], [-73.88081036957024, 40.836672239099826], [-73.88101221262284, 40.83623987714], [-73.88123087592984, 40.835769362391474], [-73.88143271898247, 40.83528612755204], [-73.8815, 40.83495549115869], [-73.88119723542107, 40.83495549115869], [-73.88112995440353, 40.835273410798166], [-73.88094493160531, 40.83569306238785], [-73.88070944804392, 40.83616357767791], [-73.88055806575446, 40.836583223632715], [-73.88028894168431, 40.83699015050653], [-73.879969356851, 40.83738435853349], [-73.87961613150891, 40.83781671302886], [-73.87931336692999, 40.838210916140504], [-73.8789769618423, 40.838706845757706], [-73.87926290616684, 40.838706845757706], [-73.87958249100015, 40.83832536176611]]]}}, {"type": "Feature", "properties": {"layer": "roof", "label": "1996 年東岸大型屋頂", "method": "manual historical aerial interpretation"}, "geometry": {"type": "Polygon", "coordinates": [[[-73.87865737700899, 40.83827449706803], [-73.87882557955284, 40.838312645595245], [-73.87909470362298, 40.83781671302886], [-73.8781023086143, 40.83753695455973], [-73.87761452123715, 40.83838894258383], [-73.87847235421076, 40.83869412966003], [-73.87865737700899, 40.83827449706803]]]}}, {"type": "Feature", "properties": {"layer": "rail", "label": "鐵路廊帶邊緣", "method": "manual historical aerial interpretation"}, "geometry": {"type": "LineString", "coordinates": [[-73.88220645068415, 40.83495549115869], [-73.8818364050877, 40.8356549123531], [-73.88144953923685, 40.83630345995802], [-73.88112995440353, 40.836952001218215], [-73.88079354931585, 40.837625968746146], [-73.88035622270185, 40.83828721324619], [-73.87990207583347, 40.838706845757706]]}}, {"type": "Feature", "properties": {"layer": "rail", "label": "鐵路廊帶邊緣", "method": "manual historical aerial interpretation"}, "geometry": {"type": "LineString", "coordinates": [[-73.88187004559647, 40.83495549115869], [-73.88153364050876, 40.835578612217745], [-73.8811804151667, 40.8362271605691], [-73.880844010079, 40.836888419022245], [-73.88050760499131, 40.83752423823763], [-73.88008709863169, 40.83817276755474], [-73.87963295176331, 40.838706845757706]]}}, {"type": "Feature", "properties": {"layer": "road", "label": "Cross-Bronx 可見路面", "method": "manual historical aerial interpretation"}, "geometry": {"type": "Polygon", "coordinates": [[[-73.87668940724599, 40.83660865663551], [-73.87773226301785, 40.83672310502733], [-73.87870783777215, 40.836888419022245], [-73.8796497720177, 40.83711731464233], [-73.88047396448255, 40.83738435853349], [-73.88119723542107, 40.837689550234685], [-73.88187004559647, 40.83798202429658], [-73.88234101271924, 40.83822363233089], [-73.88234101271924, 40.83794387557906], [-73.8820382481403, 40.837791280489554], [-73.88131497720177, 40.83748608925668], [-73.88057488600884, 40.83718089661872], [-73.87973387328961, 40.836913851907944], [-73.87879193904406, 40.83669767206845], [-73.87779954403538, 40.836519641083036], [-73.87673986800914, 40.83640519233996], [-73.87645392368461, 40.836392475800764], [-73.87645392368461, 40.836595940135325], [-73.87668940724599, 40.83660865663551]]]}}, {"type": "Feature", "properties": {"layer": "road", "label": "Sheridan 可見路面", "method": "manual historical aerial interpretation"}, "geometry": {"type": "Polygon", "coordinates": [[[-73.88224009119293, 40.835222543758306], [-73.88198778737716, 40.835667629033765], [-73.88185322534208, 40.83611271132108], [-73.88180276457892, 40.83654507411024], [-73.88181958483332, 40.83702829977288], [-73.88197096712278, 40.83744794025375], [-73.88220645068415, 40.837867578078225], [-73.88234101271924, 40.83823634851882], [-73.88234101271924, 40.83767683394187], [-73.88220645068415, 40.83744794025375], [-73.88207188864908, 40.8370155833532], [-73.88205506839469, 40.836595940135325], [-73.88207188864908, 40.83618901084169], [-73.88218963042978, 40.83578207905021], [-73.88234101271924, 40.83547687856735], [-73.88234101271924, 40.83505722560921], [-73.88224009119293, 40.835222543758306]]]}}, {"type": "Feature", "properties": {"layer": "road", "label": "迴轉匝道可見路面", "method": "manual historical aerial interpretation"}, "geometry": {"type": "Polygon", "coordinates": [[[-73.88187004559647, 40.83791844308853], [-73.88153364050876, 40.83776584794048], [-73.88112995440353, 40.83775313166229], [-73.88075990880708, 40.83791844308853], [-73.88042350371938, 40.83813461894704], [-73.8800702783773, 40.83822363233089], [-73.87978433405277, 40.838210916140504], [-73.87954885049137, 40.83808375410258], [-73.87939746820192, 40.83789301058826], [-73.87931336692999, 40.83766411764661], [-73.87948156947384, 40.83747337292483], [-73.87985161507031, 40.83733349311334], [-73.87961613150891, 40.837269911283286], [-73.87927972642122, 40.83742250757295], [-73.87912834413177, 40.83763868504876], [-73.87919562514931, 40.83789301058826], [-73.87938064794754, 40.83813461894704], [-73.87970023278085, 40.838299929421936], [-73.8800702783773, 40.83833807793453], [-73.88050760499131, 40.83823634851882], [-73.88086083033339, 40.83803288921908], [-73.88119723542107, 40.83789301058826], [-73.88155046076315, 40.83793115933502], [-73.88187004559647, 40.838058321665685], [-73.88187004559647, 40.83791844308853]]]}}, {"type": "Feature", "properties": {"layer": "road", "label": "東岸道路可見範圍", "method": "manual historical aerial interpretation"}, "geometry": {"type": "Polygon", "coordinates": [[[-73.87692489080737, 40.83630345995802], [-73.87736221742138, 40.8362271605691], [-73.87796774657922, 40.83593467876473], [-73.87850599471953, 40.835515028704535], [-73.87907788336861, 40.83495549115869], [-73.8787582985353, 40.83495549115869], [-73.87833779217569, 40.83537514476082], [-73.87779954403538, 40.83578207905021], [-73.87726129589507, 40.83606184492519], [-73.87687443004421, 40.83613814450438], [-73.87645392368461, 40.83615086109238], [-73.87645392368461, 40.83631617651429], [-73.87692489080737, 40.83630345995802]]]}}, {"type": "Feature", "properties": {"layer": "road", "label": "174 街橋可見路面", "method": "manual historical aerial interpretation"}, "geometry": {"type": "Polygon", "coordinates": [[[-73.88101221262284, 40.83515895990358], [-73.88170184305262, 40.83538786149518], [-73.88234101271924, 40.83562947898441], [-73.88234101271924, 40.83542601168359], [-73.88176912407016, 40.835222543758306], [-73.88096175185969, 40.83495549115869], [-73.88035622270185, 40.83495549115869], [-73.88101221262284, 40.83515895990358]]]}}]}