{"type": "FeatureCollection", "features": [{"type": "Feature", "properties": {"id": "nihonbashi-01", "layer": "road", "label": "高架北／東側可見邊緣", "confidence": "medium", "method": "manual aerial interpretation; roof projection, not surveyed footprint", "source_year": "1974–1978"}, "geometry": {"type": "LineString", "coordinates": [[139.76781715221858, 35.68916514567289], [139.7682581553393, 35.688926427823915], [139.7687392496528, 35.688622604073785], [139.76918025277354, 35.688264524596946], [139.76968807454892, 35.687797933775904], [139.77012907766965, 35.687342191269494], [139.7704898984048, 35.68687559505367], [139.7707972642162, 35.68633303788259], [139.77099772018016, 35.685833882026216], [139.77119817614414, 35.685291317770414], [139.77142535956997, 35.68496577744576], [139.77183963522882, 35.68479215539611], [139.77253454923724, 35.68467279001782], [139.7734165554787, 35.68452087018714], [139.77428519798917, 35.68436895006717], [139.77483311095736, 35.68433639571811], [139.77548793377298, 35.684401504402935], [139.77624966643603, 35.68452087018714], [139.77682430686608, 35.684640235792735], [139.7773989472961, 35.68456427588256], [139.7778265866859, 35.68436895006717], [139.77805377011174, 35.68409766341912], [139.77814731622826, 35.683717860562105], [139.77814731622826, 35.68340316539662], [139.77801367891894, 35.68312102384812]]}}, {"type": "Feature", "properties": {"id": "nihonbashi-02", "layer": "road", "label": "高架南／西側可見邊緣", "confidence": "medium", "method": "manual aerial interpretation; roof projection, not surveyed footprint", "source_year": "1974–1978"}, "geometry": {"type": "LineString", "coordinates": [[139.76724251178857, 35.68916514567289], [139.76772360610207, 35.68894812947606], [139.7682047004156, 35.68867685839975], [139.76867243099818, 35.68837303369907], [139.76912679784982, 35.68798240024065], [139.76956780097055, 35.687559211835385], [139.76999544036036, 35.68707091473191], [139.77031616990269, 35.68657176349245], [139.77057008079038, 35.686018353032615], [139.7707972642162, 35.6854540874346], [139.77101108391108, 35.68502003425879], [139.7712649947988, 35.68471619563059], [139.77162581553392, 35.6845317216132], [139.77224054715674, 35.684412355845254], [139.77300227981982, 35.684271286980135], [139.77384419486847, 35.684108514902746], [139.77457920006967, 35.683945742493286], [139.77504693065225, 35.683934890987516], [139.775675026006, 35.6840108514969], [139.77630312135977, 35.684119366384905], [139.77689112552073, 35.68424958405569], [139.7773454923724, 35.68433639571811], [139.777612766991, 35.68424958405569], [139.77783995041685, 35.68400000000001], [139.77790676907148, 35.683696157487105], [139.777813222955, 35.68337061065348], [139.77765285818379, 35.68312102384812]]}}, {"type": "Feature", "properties": {"id": "nihonbashi-03", "layer": "road", "label": "江戶橋支線可見邊緣", "confidence": "medium", "method": "manual aerial interpretation; roof projection, not surveyed footprint", "source_year": "1974–1978"}, "geometry": {"type": "LineString", "coordinates": [[139.77802704264985, 35.68370700902534], [139.7784279545778, 35.683869781921864], [139.77884223023665, 35.683934890987516], [139.7792965970883, 35.68388063343649], [139.77971087274716, 35.68370700902534], [139.7800182385586, 35.6834140169747]]}}, {"type": "Feature", "properties": {"id": "nihonbashi-04", "layer": "road", "label": "江戶橋支線可見邊緣", "confidence": "medium", "method": "manual aerial interpretation; roof projection, not surveyed footprint", "source_year": "1974–1978"}, "geometry": {"type": "LineString", "coordinates": [[139.77816067995917, 35.68348997798006], [139.7785615918871, 35.68363104822665], [139.7789491400841, 35.683674454406194], [139.77930996081923, 35.68358764202349], [139.77963069036159, 35.683359759069496], [139.7800182385586, 35.68293654614236]]}}, {"type": "Feature", "properties": {"id": "nihonbashi-05", "layer": "roof", "label": "河道北側大型屋頂", "confidence": "medium", "method": "manual aerial interpretation; roof projection, not surveyed footprint", "source_year": "1974–1978"}, "geometry": {"type": "Polygon", "coordinates": [[[139.77081062794713, 35.68707091473191], [139.77150554195555, 35.687244531822266], [139.771799544036, 35.68657176349245], [139.77107790256576, 35.68637644259206], [139.77081062794713, 35.68707091473191]]]}}, {"type": "Feature", "properties": {"id": "nihonbashi-06", "layer": "roof", "label": "中央北側大型屋頂", "confidence": "medium", "method": "manual aerial interpretation; roof projection, not surveyed footprint", "source_year": "1974–1978"}, "geometry": {"type": "Polygon", "coordinates": [[[139.77258800416095, 35.687277084984615], [139.77322946324563, 35.68743985059721], [139.77361701144264, 35.68655006119381], [139.7729488248961, 35.68636559141689], [139.77258800416095, 35.687277084984615]]]}}, {"type": "Feature", "properties": {"id": "nihonbashi-07", "layer": "roof", "label": "中央北側大型屋頂", "confidence": "medium", "method": "manual aerial interpretation; roof projection, not surveyed footprint", "source_year": "1974–1978"}, "geometry": {"type": "Polygon", "coordinates": [[[139.77187972642162, 35.68596409689854], [139.77248109431352, 35.68610516277037], [139.7728151875868, 35.685367276988345], [139.77220045596397, 35.68522620981175], [139.77187972642162, 35.68596409689854]]]}}, {"type": "Feature", "properties": {"id": "nihonbashi-08", "layer": "roof", "label": "中央北側大型屋頂", "confidence": "medium", "method": "manual aerial interpretation; roof projection, not surveyed footprint", "source_year": "1974–1978"}, "geometry": {"type": "Polygon", "coordinates": [[[139.77245436685166, 35.68620282361246], [139.77306909847445, 35.68635474024027], [139.7734165554787, 35.68554089778638], [139.77284191504864, 35.68537812829931], [139.77245436685166, 35.68620282361246]]]}}, {"type": "Feature", "properties": {"id": "nihonbashi-09", "layer": "roof", "label": "河道西側屋頂", "confidence": "medium", "method": "manual aerial interpretation; roof projection, not surveyed footprint", "source_year": "1974–1978"}, "geometry": {"type": "Polygon", "coordinates": [[[139.76746969521437, 35.68781963573507], [139.7678305159495, 35.687743678852144], [139.76779042475673, 35.6875483608211], [139.7687258859219, 35.68747240367986], [139.76865906726724, 35.68707091473191], [139.7678305159495, 35.68713602118508], [139.76785724341138, 35.687244531822266], [139.767349421636, 35.687287936035794], [139.76746969521437, 35.68781963573507]]]}}, {"type": "Feature", "properties": {"id": "nihonbashi-10", "layer": "roof", "label": "河道西側屋頂", "confidence": "medium", "method": "manual aerial interpretation; roof projection, not surveyed footprint", "source_year": "1974–1978"}, "geometry": {"type": "Polygon", "coordinates": [[[139.76670796255132, 35.68726623393198], [139.76757660506183, 35.68710346796515], [139.76752315013812, 35.68685389283767], [139.76694850970807, 35.68694070166622], [139.76689505478433, 35.68672367941771], [139.7665342340492, 35.68678878615425], [139.76670796255132, 35.68726623393198]]]}}, {"type": "Feature", "properties": {"id": "nihonbashi-11", "layer": "roof", "label": "河道西側屋頂", "confidence": "medium", "method": "manual aerial interpretation; roof projection, not surveyed footprint", "source_year": "1974–1978"}, "geometry": {"type": "Polygon", "coordinates": [[[139.7673895128288, 35.68687559505367], [139.7678706071423, 35.68677793503519], [139.767736969833, 35.686311335518994], [139.76724251178857, 35.686408996108675], [139.7673895128288, 35.68687559505367]]]}}, {"type": "Feature", "properties": {"id": "nihonbashi-12", "layer": "roof", "label": "河道西側大型屋頂", "confidence": "medium", "method": "manual aerial interpretation; roof projection, not surveyed footprint", "source_year": "1974–1978"}, "geometry": {"type": "Polygon", "coordinates": [[[139.7668282361297, 35.68546493873374], [139.7673627853669, 35.685367276988345], [139.767349421636, 35.68511769642924], [139.76796415325884, 35.684998331538004], [139.76779042475673, 35.6845317216132], [139.76664114389666, 35.684770452613336], [139.76669459882038, 35.68500918289912], [139.7668282361297, 35.68546493873374]]]}}, {"type": "Feature", "properties": {"id": "nihonbashi-13", "layer": "roof", "label": "河道西側大型屋頂", "confidence": "medium", "method": "manual aerial interpretation; roof projection, not surveyed footprint", "source_year": "1974–1978"}, "geometry": {"type": "Polygon", "coordinates": [[[139.76936734500657, 35.685280466447665], [139.76970143827987, 35.68518280447645], [139.76966134708707, 35.68498748017541], [139.77030280617174, 35.68485726370901], [139.77012907766965, 35.68442320728609], [139.76916688904262, 35.68462938438144], [139.76936734500657, 35.685280466447665]]]}}, {"type": "Feature", "properties": {"id": "nihonbashi-14", "layer": "roof", "label": "河道南側屋頂", "confidence": "medium", "method": "manual aerial interpretation; roof projection, not surveyed footprint", "source_year": "1974–1978"}, "geometry": {"type": "Polygon", "coordinates": [[[139.77264145908467, 35.683978297001744], [139.77320273578377, 35.6838263758486], [139.77305573474354, 35.6834140169747], [139.77249445804443, 35.68357679046902], [139.77264145908467, 35.683978297001744]]]}}, {"type": "Feature", "properties": {"id": "nihonbashi-15", "layer": "roof", "label": "河道南側屋頂", "confidence": "medium", "method": "manual aerial interpretation; roof projection, not surveyed footprint", "source_year": "1974–1978"}, "geometry": {"type": "Polygon", "coordinates": [[[139.77355019278798, 35.68373956363121], [139.77415156067988, 35.68357679046902], [139.77397783217776, 35.68316443030514], [139.77338982801683, 35.683327204308625], [139.77355019278798, 35.68373956363121]]]}}, {"type": "Feature", "properties": {"id": "nihonbashi-16", "layer": "roof", "label": "河道南側大型屋頂", "confidence": "medium", "method": "manual aerial interpretation; roof projection, not surveyed footprint", "source_year": "1974–1978"}, "geometry": {"type": "Polygon", "coordinates": [[[139.7720400911928, 35.68270866132868], [139.77240091192792, 35.68262184789509], [139.77232072954234, 35.68239396218259], [139.77274836893213, 35.682285444947865], [139.77258800416095, 35.68195989235813], [139.7718663626907, 35.682155224071366], [139.7720400911928, 35.68270866132868]]]}}]}