{"type": "FeatureCollection", "features": [{"type": "Feature", "properties": {"layer": "pending", "label": "陰影／細碎屋頂，待逐棟判讀", "method": "manual historical aerial interpretation"}, "geometry": {"type": "Polygon", "coordinates": [[[139.77113135748948, 35.68569281567468], [139.77113135748948, 35.6831969851324], [139.77520729542343, 35.6831969851324], [139.77520729542343, 35.68569281567468], [139.77113135748948, 35.68569281567468]]]}}, {"type": "Feature", "properties": {"layer": "pending", "label": "高架下水面與岸線遮蔽", "method": "manual historical aerial interpretation"}, "geometry": {"type": "Polygon", "coordinates": [[[139.77488656588108, 35.68404340597883], [139.77448565395315, 35.68404340597883], [139.7736838300973, 35.68421702965791], [139.77305573474354, 35.684347247169256], [139.77238754819697, 35.6844557615997], [139.77173272538138, 35.68455342446091], [139.7713585409153, 35.68468364142321], [139.77113135748948, 35.684824709559216], [139.77113135748948, 35.684618532968635], [139.77130508599157, 35.68451001875959], [139.7717059979195, 35.68435809861895], [139.7723340932733, 35.684271286980135], [139.77300227981982, 35.684151920822536], [139.77363037517358, 35.6840108514969], [139.77443219902943, 35.683837227369125], [139.7748464746883, 35.68380467280311], [139.77520729542343, 35.68388063343649], [139.77520729542343, 35.68409766341912], [139.77488656588108, 35.68404340597883]]]}}, {"type": "Feature", "properties": {"layer": "roof", "label": "北岸屋頂", "method": "manual historical aerial interpretation"}, "geometry": {"type": "Polygon", "coordinates": [[[139.77137190464623, 35.68535642567593], [139.7716659067267, 35.6854323848319], [139.77159908807207, 35.68558430292683], [139.77130508599157, 35.68550834391554], [139.77137190464623, 35.68535642567593]]]}}, {"type": "Feature", "properties": {"layer": "roof", "label": "北岸屋頂", "method": "manual historical aerial interpretation"}, "geometry": {"type": "Polygon", "coordinates": [[[139.771799544036, 35.68534557436203], [139.77208018238557, 35.685421533528306], [139.77198663626908, 35.685649410593236], [139.7717059979195, 35.685573451643926], [139.771799544036, 35.68534557436203]]]}}, {"type": "Feature", "properties": {"layer": "roof", "label": "北岸屋頂", "method": "manual historical aerial interpretation"}, "geometry": {"type": "Polygon", "coordinates": [[[139.77220045596397, 35.685291317770414], [139.77240091192792, 35.68534557436203], [139.77225391088768, 35.68563855931919], [139.77208018238557, 35.68559515420826], [139.77220045596397, 35.685291317770414]]]}}, {"type": "Feature", "properties": {"layer": "roof", "label": "北岸屋頂", "method": "manual historical aerial interpretation"}, "geometry": {"type": "Polygon", "coordinates": [[[139.77246773058258, 35.685161101799956], [139.77270827773933, 35.685237061141876], [139.77257464043, 35.68553004649755], [139.7723340932733, 35.6854540874346], [139.77246773058258, 35.685161101799956]]]}}, {"type": "Feature", "properties": {"layer": "roof", "label": "北岸屋頂", "method": "manual historical aerial interpretation"}, "geometry": {"type": "Polygon", "coordinates": [[[139.77244100312072, 35.685681964406534], [139.77253454923724, 35.68546493873374], [139.77270827773933, 35.68550834391554], [139.77262876354027, 35.68569281567468], [139.7724844352462, 35.68569281567468], [139.77244100312072, 35.685681964406534]]]}}, {"type": "Feature", "properties": {"layer": "roof", "label": "北岸屋頂", "method": "manual historical aerial interpretation"}, "geometry": {"type": "Polygon", "coordinates": [[[139.77298891608888, 35.68524791247053], [139.77314928086005, 35.685291317770414], [139.77297555235796, 35.685681964406534], [139.7728151875868, 35.68563855931919], [139.77298891608888, 35.68524791247053]]]}}, {"type": "Feature", "properties": {"layer": "roof", "label": "北岸屋頂", "method": "manual historical aerial interpretation"}, "geometry": {"type": "Polygon", "coordinates": [[[139.77314928086005, 35.68532387172981], [139.7734700104024, 35.685421533528306], [139.77334852193937, 35.68569281567468], [139.77298891608888, 35.68569281567468], [139.77314928086005, 35.68532387172981]]]}}, {"type": "Feature", "properties": {"layer": "roof", "label": "北岸屋頂", "method": "manual historical aerial interpretation"}, "geometry": {"type": "Polygon", "coordinates": [[[139.7734299192096, 35.68537812829931], [139.77367046636635, 35.685443236133985], [139.77359028398078, 35.685649410593236], [139.773349736824, 35.68558430292683], [139.7734299192096, 35.68537812829931]]]}}, {"type": "Feature", "properties": {"layer": "roof", "label": "北岸屋頂", "method": "manual historical aerial interpretation"}, "geometry": {"type": "Polygon", "coordinates": [[[139.77365710263544, 35.68566026186581], [139.77376401248287, 35.68539983091675], [139.77403128710148, 35.685475790031404], [139.77393832201676, 35.68569281567468], [139.77379073994473, 35.68569281567468], [139.77365710263544, 35.68566026186581]]]}}, {"type": "Feature", "properties": {"layer": "roof", "label": "北岸屋頂", "method": "manual historical aerial interpretation"}, "geometry": {"type": "Polygon", "coordinates": [[[139.77405801456337, 35.68530216909169], [139.77427183425826, 35.685367276988345], [139.7742050156036, 35.68553004649755], [139.7739911959087, 35.685475790031404], [139.77405801456337, 35.68530216909169]]]}}, {"type": "Feature", "properties": {"layer": "roof", "label": "北岸沿河屋頂", "method": "manual historical aerial interpretation"}, "geometry": {"type": "Polygon", "coordinates": [[[139.7716659067267, 35.68488981784553], [139.77182627149787, 35.68484641232723], [139.7718663626907, 35.68495492607871], [139.77169263418855, 35.684998331538004], [139.7716659067267, 35.68488981784553]]]}}, {"type": "Feature", "properties": {"layer": "roof", "label": "北岸沿河屋頂", "method": "manual historical aerial interpretation"}, "geometry": {"type": "Polygon", "coordinates": [[[139.7720534549237, 35.68484641232723], [139.7725612766991, 35.684781304005476], [139.77258800416095, 35.68492237196876], [139.7720935461165, 35.68497662881131], [139.7720534549237, 35.68484641232723]]]}}, {"type": "Feature", "properties": {"layer": "roof", "label": "北岸沿河屋頂", "method": "manual historical aerial interpretation"}, "geometry": {"type": "Polygon", "coordinates": [[[139.77280182385587, 35.684770452613336], [139.77305573474354, 35.68472704703011], [139.7730824622054, 35.68483556094395], [139.7728285513177, 35.684878966468176], [139.77280182385587, 35.684770452613336]]]}}, {"type": "Feature", "properties": {"layer": "roof", "label": "北岸屋頂", "method": "manual historical aerial interpretation"}, "geometry": {"type": "Polygon", "coordinates": [[[139.77332300936214, 35.684998331538004], [139.7734165554787, 35.68493322334024], [139.77345664667146, 35.68500918289912], [139.77363037517358, 35.68505258832887], [139.77359028398078, 35.68518280447645], [139.77336310055495, 35.68512854777413], [139.77332300936214, 35.684998331538004]]]}}, {"type": "Feature", "properties": {"layer": "roof", "label": "北岸屋頂", "method": "manual historical aerial interpretation"}, "geometry": {"type": "Polygon", "coordinates": [[[139.7736838300973, 35.68495492607871], [139.77385755859942, 35.684998331538004], [139.77379073994473, 35.68512854777413], [139.77361701144264, 35.685085142385695], [139.7736838300973, 35.68495492607871]]]}}, {"type": "Feature", "properties": {"layer": "roof", "label": "北岸屋頂", "method": "manual historical aerial interpretation"}, "geometry": {"type": "Polygon", "coordinates": [[[139.773937740985, 35.68496577744576], [139.7741649244108, 35.68503088561696], [139.77408474202522, 35.68520450714706], [139.77385755859942, 35.6851502504595], [139.773937740985, 35.68496577744576]]]}}, {"type": "Feature", "properties": {"layer": "roof", "label": "北岸屋頂", "method": "manual historical aerial interpretation"}, "geometry": {"type": "Polygon", "coordinates": [[[139.77423174306546, 35.68494407471022], [139.77443219902943, 35.684998331538004], [139.77435201664386, 35.68517195313894], [139.77415156067988, 35.68511769642924], [139.77423174306546, 35.68494407471022]]]}}, {"type": "Feature", "properties": {"layer": "roof", "label": "北岸屋頂", "method": "manual historical aerial interpretation"}, "geometry": {"type": "Polygon", "coordinates": [[[139.77460592753152, 35.684878966468176], [139.7748063834955, 35.68493322334024], [139.77475292857176, 35.68507429103491], [139.7745391088769, 35.68502003425879], [139.77460592753152, 35.684878966468176]]]}}, {"type": "Feature", "properties": {"layer": "roof", "label": "北岸沿河屋頂", "method": "manual historical aerial interpretation"}, "geometry": {"type": "Polygon", "coordinates": [[[139.77348337413332, 35.6845425730378], [139.77383083113753, 35.68446661303463], [139.77385755859942, 35.68460768155436], [139.77352346532612, 35.68467279001782], [139.77348337413332, 35.6845425730378]]]}}, {"type": "Feature", "properties": {"layer": "roof", "label": "北岸沿河屋頂", "method": "manual historical aerial interpretation"}, "geometry": {"type": "Polygon", "coordinates": [[[139.77392437725405, 35.68447746446809], [139.77423174306546, 35.684401504402935], [139.77427183425826, 35.6845425730378], [139.77396446844685, 35.684618532968635], [139.77392437725405, 35.68447746446809]]]}}, {"type": "Feature", "properties": {"layer": "roof", "label": "北岸沿河屋頂", "method": "manual historical aerial interpretation"}, "geometry": {"type": "Polygon", "coordinates": [[[139.77463265499338, 35.684618532968635], [139.77491329334293, 35.68460768155436], [139.77489992961202, 35.684748749824685], [139.77461929126247, 35.684748749824685], [139.77463265499338, 35.684618532968635]]]}}, {"type": "Feature", "properties": {"layer": "roof", "label": "南岸屋頂", "method": "manual historical aerial interpretation"}, "geometry": {"type": "Polygon", "coordinates": [[[139.77253454923724, 35.683663602863504], [139.77276173266304, 35.68359849357649], [139.77289536997236, 35.68392403948027], [139.77266818654655, 35.683978297001744], [139.77253454923724, 35.683663602863504]]]}}, {"type": "Feature", "properties": {"layer": "roof", "label": "南岸屋頂", "method": "manual historical aerial interpretation"}, "geometry": {"type": "Polygon", "coordinates": [[[139.7728285513177, 35.68358764202349], [139.7730958259363, 35.683522532674466], [139.77324282697657, 35.68389148494967], [139.77297555235796, 35.68395659399758], [139.7728285513177, 35.68358764202349]]]}}, {"type": "Feature", "properties": {"layer": "roof", "label": "南岸屋頂", "method": "manual historical aerial interpretation"}, "geometry": {"type": "Polygon", "coordinates": [[[139.7733363730931, 35.683772118223814], [139.77348337413332, 35.68373956363121], [139.77353682905704, 35.683934890987516], [139.77338982801683, 35.6839674455004], [139.7733363730931, 35.683772118223814]]]}}, {"type": "Feature", "properties": {"layer": "roof", "label": "南岸長屋頂", "method": "manual historical aerial interpretation"}, "geometry": {"type": "Polygon", "coordinates": [[[139.77348337413332, 35.68379382127815], [139.77408474202522, 35.683663602863504], [139.77413819694894, 35.68381552432659], [139.77355019278798, 35.68395659399758], [139.77348337413332, 35.68379382127815]]]}}, {"type": "Feature", "properties": {"layer": "roof", "label": "南岸屋頂", "method": "manual historical aerial interpretation"}, "geometry": {"type": "Polygon", "coordinates": [[[139.77415156067988, 35.683652751319364], [139.77435201664386, 35.68360934512801], [139.7744188352985, 35.68380467280311], [139.77421837933454, 35.68384807888818], [139.77415156067988, 35.683652751319364]]]}}, {"type": "Feature", "properties": {"layer": "roof", "label": "南岸沿河屋頂", "method": "manual historical aerial interpretation"}, "geometry": {"type": "Polygon", "coordinates": [[[139.77449901768406, 35.68389148494967], [139.7748063834955, 35.68385893040578], [139.7748464746883, 35.683945742493286], [139.77452574514595, 35.68398914850162], [139.77449901768406, 35.68389148494967]]]}}, {"type": "Feature", "properties": {"layer": "roof", "label": "南岸屋頂", "method": "manual historical aerial interpretation"}, "geometry": {"type": "Polygon", "coordinates": [[[139.77177281657416, 35.68359849357649], [139.77202672746185, 35.68353338423634], [139.77214700104022, 35.68379382127815], [139.77189309015253, 35.68385893040578], [139.77177281657416, 35.68359849357649]]]}}, {"type": "Feature", "properties": {"layer": "roof", "label": "南岸屋頂", "method": "manual historical aerial interpretation"}, "geometry": {"type": "Polygon", "coordinates": [[[139.77146545076275, 35.68379382127815], [139.7716659067267, 35.68373956363121], [139.7717460891123, 35.68392403948027], [139.77154563314835, 35.683978297001744], [139.77146545076275, 35.68379382127815]]]}}, {"type": "Feature", "properties": {"layer": "roof", "label": "南岸屋頂", "method": "manual historical aerial interpretation"}, "geometry": {"type": "Polygon", "coordinates": [[[139.77141199583903, 35.68347912641227], [139.77159908807207, 35.68342486855134], [139.77167927045764, 35.68360934512801], [139.7714921782246, 35.683663602863504], [139.77141199583903, 35.68347912641227]]]}}, {"type": "Feature", "properties": {"layer": "roof", "label": "南岸屋頂", "method": "manual historical aerial interpretation"}, "geometry": {"type": "Polygon", "coordinates": [[[139.77213363730928, 35.683316352718734], [139.7718663626907, 35.68338146223599], [139.77181290776696, 35.6832403915481], [139.77199109084603, 35.6831969851324], [139.77208840621998, 35.6831969851324], [139.77213363730928, 35.683316352718734]]]}}, {"type": "Feature", "properties": {"layer": "roof", "label": "南岸屋頂", "method": "manual historical aerial interpretation"}, "geometry": {"type": "Polygon", "coordinates": [[[139.77349673786426, 35.68333805589707], [139.77328291816937, 35.68339231381706], [139.7732160995147, 35.6832403915481], [139.77338715527063, 35.6831969851324], [139.77343469197066, 35.6831969851324], [139.77349673786426, 35.68333805589707]]]}}, {"type": "Feature", "properties": {"layer": "roof", "label": "南岸屋頂", "method": "manual historical aerial interpretation"}, "geometry": {"type": "Polygon", "coordinates": [[[139.77379073994473, 35.683262094747086], [139.77355019278798, 35.683316352718734], [139.77350119244122, 35.6831969851324], [139.77376401248287, 35.6831969851324], [139.77379073994473, 35.683262094747086]]]}}, {"type": "Feature", "properties": {"layer": "roof", "label": "南岸屋頂", "method": "manual historical aerial interpretation"}, "geometry": {"type": "Polygon", "coordinates": [[[139.77471283737898, 35.68344657170013], [139.77492665707388, 35.68339231381706], [139.7750202031904, 35.68360934512801], [139.7748063834955, 35.683663602863504], [139.77471283737898, 35.68344657170013]]]}}, {"type": "Feature", "properties": {"layer": "roof", "label": "南岸屋頂", "method": "manual historical aerial interpretation"}, "geometry": {"type": "Polygon", "coordinates": [[[139.77481974722645, 35.683294649534496], [139.77461929126247, 35.683348907484], [139.7745524726078, 35.6831969851324], [139.774776792377, 35.6831969851324], [139.77481974722645, 35.683294649534496]]]}}, {"type": "Feature", "properties": {"layer": "road", "label": "北岸街道可見範圍", "method": "manual historical aerial interpretation"}, "geometry": {"type": "Polygon", "coordinates": [[[139.77113135748948, 35.68558430292683], [139.77113135748948, 35.685313020411485], [139.77133181345343, 35.68535642567593], [139.772, 35.68553004649755], [139.77264145908467, 35.68567111313691], [139.77270679288034, 35.68569281567468], [139.77154711800733, 35.68569281567468], [139.77113135748948, 35.68558430292683]]]}}, {"type": "Feature", "properties": {"layer": "road", "label": "橋上街道", "method": "manual historical aerial interpretation"}, "geometry": {"type": "Polygon", "coordinates": [[[139.7730423710126, 35.68507429103491], [139.77305573474354, 35.684781304005476], [139.7729488248961, 35.68451001875959], [139.77310918966725, 35.68447746446809], [139.7732160995147, 35.684748749824685], [139.77318937205285, 35.685085142385695], [139.77291841088777, 35.68569281567468], [139.77276173266304, 35.68569281567468], [139.7730423710126, 35.68507429103491]]]}}, {"type": "Feature", "properties": {"layer": "road", "label": "橋上街道", "method": "manual historical aerial interpretation"}, "geometry": {"type": "Polygon", "coordinates": [[[139.7744188352985, 35.68504173697366], [139.77448565395315, 35.68452087018714], [139.77440547156758, 35.68395659399758], [139.77457920006967, 35.683945742493286], [139.77467274618618, 35.6845425730378], [139.77460592753152, 35.68507429103491], [139.77433932109946, 35.68569281567468], [139.7741649244108, 35.68569281567468], [139.7744188352985, 35.68504173697366]]]}}, {"type": "Feature", "properties": {"layer": "road", "label": "高架路面可辨識範圍", "method": "manual historical aerial interpretation"}, "geometry": {"type": "Polygon", "coordinates": [[[139.77487320215016, 35.68421702965791], [139.77449901768406, 35.68421702965791], [139.773737285021, 35.684379801513906], [139.7730958259363, 35.68451001875959], [139.77241427565883, 35.684618532968635], [139.7717861803051, 35.68471619563059], [139.77139863210812, 35.68484641232723], [139.77113135748948, 35.68504173697366], [139.77113135748948, 35.684824709559216], [139.7713585409153, 35.68468364142321], [139.77173272538138, 35.68455342446091], [139.77238754819697, 35.6844557615997], [139.77305573474354, 35.684347247169256], [139.7736838300973, 35.68421702965791], [139.77448565395315, 35.68404340597883], [139.77488656588108, 35.68404340597883], [139.77520729542343, 35.68409766341912], [139.77520729542343, 35.684271286980135], [139.77487320215016, 35.68421702965791]]]}}]}