{"type": "FeatureCollection", "features": [{"type": "Feature", "properties": {"layer": "pending", "label": "船舶、陰影、碼頭平台邊緣待判讀", "method": "manual historical aerial interpretation"}, "geometry": {"type": "Polygon", "coordinates": [[[-74.00898801667384, 40.742241960245174], [-74.00893664649765, 40.74295235551716], [-74.01210875487762, 40.743127520308555], [-74.0127637246241, 40.7430496693471], [-74.0127637246241, 40.74248524715151], [-74.00898801667384, 40.742241960245174]]]}}, {"type": "Feature", "properties": {"layer": "pending", "label": "陰影與平台邊緣待判讀", "method": "manual historical aerial interpretation"}, "geometry": {"type": "Polygon", "coordinates": [[[-74.01267382681576, 40.74144397294614], [-74.00939897808338, 40.74118121893549], [-74.00934760790719, 40.741735920629544], [-74.01260961409552, 40.74195001478295], [-74.01267382681576, 40.74144397294614]]]}}, {"type": "Feature", "properties": {"layer": "pending", "label": "陰影與平台邊緣待判讀", "method": "manual historical aerial interpretation"}, "geometry": {"type": "Polygon", "coordinates": [[[-74.00956593115602, 40.740461072992964], [-74.00950171843577, 40.74103524403664], [-74.0127637246241, 40.74116175563414], [-74.0127637246241, 40.74054865872676], [-74.00956593115602, 40.740461072992964]]]}}, {"type": "Feature", "properties": {"layer": "pending", "label": "岸際堆置場及細碎屋頂待判讀", "method": "manual historical aerial interpretation"}, "geometry": {"type": "Polygon", "coordinates": [[[-74.0114923127633, 40.739410035191916], [-74.01029795616678, 40.739371107547015], [-74.0101438456382, 40.73956574554369], [-74.00992552238938, 40.739857701470854], [-74.00970719914055, 40.740139924315706], [-74.00959161624411, 40.74042214596314], [-74.0114923127633, 40.740500000000004], [-74.0114923127633, 40.739410035191916]]]}}, {"type": "Feature", "properties": {"layer": "pending", "label": "東側陰影區待判讀", "method": "manual historical aerial interpretation"}, "geometry": {"type": "Polygon", "coordinates": [[[-74.00852568508809, 40.743322147313485], [-74.00876969342501, 40.74026643761607], [-74.0088981188655, 40.7400134107747], [-74.0093219228191, 40.739507354204505], [-74.00939897808338, 40.73904022164566], [-74.00852568508809, 40.73904022164566], [-74.00852568508809, 40.743322147313485]]]}}, {"type": "Feature", "properties": {"layer": "water", "label": "可辨識開放水面", "method": "manual historical aerial interpretation"}, "geometry": {"type": "Polygon", "coordinates": [[[-74.0127637246241, 40.743906024911084], [-74.0127637246241, 40.73945869471599], [-74.01145378513115, 40.73939057137231], [-74.01145378513115, 40.739575477428566], [-74.01236560575859, 40.73969225993611], [-74.01222433777406, 40.74019831509962], [-74.0113638873228, 40.74008153348052], [-74.01132535969067, 40.7402859011794], [-74.00969435659651, 40.74019831509962], [-74.00960445878817, 40.740500000000004], [-74.0127123544479, 40.74069463469348], [-74.01249403119908, 40.741122829014394], [-74.00950171843577, 40.74109363403463], [-74.00943750571554, 40.74126880372104], [-74.01254540137526, 40.74158021535788], [-74.01232707812645, 40.741901357081304], [-74.00939897808338, 40.74186243089439], [-74.00929623773101, 40.74239766396776], [-74.0123142355824, 40.74269933889298], [-74.01210875487762, 40.7430496693471], [-74.00894948904168, 40.742893967150856], [-74.00880822105717, 40.743906024911084], [-74.0127637246241, 40.743906024911084]]]}}, {"type": "Feature", "properties": {"layer": "roof", "label": "北端陸側可見屋頂", "method": "manual historical aerial interpretation"}, "geometry": {"type": "Polygon", "coordinates": [[[-74.00870548070476, 40.743906024911084], [-74.0087440083369, 40.743643280626486], [-74.00852568508809, 40.74357435062684], [-74.00852568508809, 40.743865153646084], [-74.00870548070476, 40.743906024911084]]]}}, {"type": "Feature", "properties": {"layer": "roof", "label": "碼頭屋頂", "method": "manual historical aerial interpretation"}, "geometry": {"type": "Polygon", "coordinates": [[[-74.0122371803181, 40.742592293108395], [-74.00923202501075, 40.742368469547536], [-74.0091934973786, 40.742621487430355], [-74.01214728250976, 40.74285504154484], [-74.0122371803181, 40.742592293108395]]]}}, {"type": "Feature", "properties": {"layer": "roof", "label": "碼頭屋頂", "method": "manual historical aerial interpretation"}, "geometry": {"type": "Polygon", "coordinates": [[[-74.01242981847884, 40.74155102057883], [-74.00947603334768, 40.74133692514117], [-74.00943750571554, 40.741560752173264], [-74.01235276321455, 40.741784578452176], [-74.01242981847884, 40.74155102057883]]]}}, {"type": "Feature", "properties": {"layer": "roof", "label": "碼頭屋頂", "method": "manual historical aerial interpretation"}, "geometry": {"type": "Polygon", "coordinates": [[[-74.01258392900742, 40.7407140981315], [-74.00960445878817, 40.74059731741794], [-74.00956593115602, 40.74080168353211], [-74.01250687374312, 40.74091846388688], [-74.01258392900742, 40.7407140981315]]]}}, {"type": "Feature", "properties": {"layer": "roof", "label": "岸際屋頂", "method": "manual historical aerial interpretation"}, "geometry": {"type": "Polygon", "coordinates": [[[-74.0123142355824, 40.739682528068336], [-74.01155652548354, 40.73963386870796], [-74.01155652548354, 40.73976038297084], [-74.01164642329188, 40.73977011482725], [-74.01162073820377, 40.740071801669686], [-74.01221149523002, 40.740110728904526], [-74.0123142355824, 40.739682528068336]]]}}, {"type": "Feature", "properties": {"layer": "roof", "label": "南側碼頭屋頂", "method": "manual historical aerial interpretation"}, "geometry": {"type": "Polygon", "coordinates": [[[-74.01019521581439, 40.739049953607434], [-74.01018237327035, 40.739225128675805], [-74.012738039536, 40.73933217987936], [-74.0127637246241, 40.739262110020135], [-74.0127637246241, 40.7391554230525], [-74.01019521581439, 40.739049953607434]]]}}, {"type": "Feature", "properties": {"layer": "roof", "label": "岸際小屋頂", "method": "manual historical aerial interpretation"}, "geometry": {"type": "Polygon", "coordinates": [[[-74.01133820223471, 40.739410035191916], [-74.01085018556087, 40.73939057137231], [-74.01083734301682, 40.73948789041337], [-74.01132535969067, 40.739507354204505], [-74.01133820223471, 40.739410035191916]]]}}, {"type": "Feature", "properties": {"layer": "roof", "label": "岸際小屋頂", "method": "manual historical aerial interpretation"}, "geometry": {"type": "Polygon", "coordinates": [[[-74.010619019768, 40.73938083946039], [-74.01036216888703, 40.739371107547015], [-74.01034932634298, 40.739478158515674], [-74.01060617722395, 40.73948789041337], [-74.010619019768, 40.73938083946039]]]}}, {"type": "Feature", "properties": {"layer": "road", "label": "1951 高架可見路面", "method": "manual historical aerial interpretation"}, "geometry": {"type": "Polygon", "coordinates": [[[-74.00867979561667, 40.7433610726461], [-74.00887243377738, 40.741735920629544], [-74.00902654430598, 40.74034429183518], [-74.00914212720241, 40.7400620698574], [-74.00959161624411, 40.73956574554369], [-74.00965582896436, 40.739293252188894], [-74.00968151405245, 40.73904022164566], [-74.00942466317149, 40.73904022164566], [-74.00939897808338, 40.73927378833515], [-74.0093219228191, 40.739507354204505], [-74.0088981188655, 40.7400134107747], [-74.00876969342501, 40.74026643761607], [-74.00857705526428, 40.741706725918846], [-74.00852568508809, 40.742258179399954], [-74.00852568508809, 40.743906024911084], [-74.00861558289643, 40.743906024911084], [-74.00867979561667, 40.7433610726461]]]}}]}