{"type": "FeatureCollection", "features": [{"type": "Feature", "properties": {"id": "westside-01", "layer": "road", "label": "高架西側可見邊緣", "confidence": "medium", "method": "manual aerial interpretation; roof projection, not surveyed footprint", "source_year": "1951"}, "geometry": {"type": "LineString", "coordinates": [[-74.00828167675117, 40.74633879306134], [-74.00847431491188, 40.745064033648625], [-74.00869263816071, 40.7433610726461], [-74.00887243377738, 40.741735920629544], [-74.00902654430598, 40.74034429183518], [-74.00914212720241, 40.7400620698574], [-74.00959161624411, 40.73956574554369], [-74.00965582896436, 40.739293252188894], [-74.00974572677269, 40.73787237589693], [-74.00995120747747, 40.73625682214694], [-74.0101438456382, 40.73466069437301]]}}, {"type": "Feature", "properties": {"id": "westside-02", "layer": "road", "label": "高架東側可見邊緣", "confidence": "medium", "method": "manual aerial interpretation; roof projection, not surveyed footprint", "source_year": "1951"}, "geometry": {"type": "LineString", "coordinates": [[-74.0080248258702, 40.74633879306134], [-74.00820462148687, 40.744995916045745], [-74.00841010219166, 40.74334160998264], [-74.00857705526428, 40.741706725918846], [-74.00876969342501, 40.74026643761607], [-74.0088981188655, 40.7400134107747], [-74.0093219228191, 40.739507354204505], [-74.00939897808338, 40.73927378833515], [-74.00948887589172, 40.73785291162739], [-74.00968151405245, 40.736247089776555], [-74.00987415221319, 40.73466069437301]]}}, {"type": "Feature", "properties": {"id": "westside-03", "layer": "roof", "label": "北側碼頭倉庫屋頂", "confidence": "medium", "method": "manual aerial interpretation; roof projection, not surveyed footprint", "source_year": "1951"}, "geometry": {"type": "Polygon", "coordinates": [[[-74.01158221057163, 40.745871708479235], [-74.00865411052857, 40.74562843396012], [-74.00869263816071, 40.745336503362516], [-74.01165926583592, 40.745579778949505], [-74.01158221057163, 40.745871708479235]]]}}, {"type": "Feature", "properties": {"id": "westside-04", "layer": "roof", "label": "碼頭倉庫屋頂", "confidence": "medium", "method": "manual aerial interpretation; roof projection, not surveyed footprint", "source_year": "1951"}, "geometry": {"type": "Polygon", "coordinates": [[[-74.01182621890855, 40.744859680630675], [-74.00897517412979, 40.7446164024096], [-74.00902654430598, 40.744343929745526], [-74.01190327417285, 40.744577477811646], [-74.01182621890855, 40.744859680630675]]]}}, {"type": "Feature", "properties": {"id": "westside-05", "layer": "roof", "label": "碼頭倉庫屋頂", "confidence": "medium", "method": "manual aerial interpretation; roof projection, not surveyed footprint", "source_year": "1951"}, "geometry": {"type": "Polygon", "coordinates": [[[-74.01214728250976, 40.74285504154484], [-74.0091934973786, 40.742621487430355], [-74.00923202501075, 40.742368469547536], [-74.0122371803181, 40.742592293108395], [-74.01214728250976, 40.74285504154484]]]}}, {"type": "Feature", "properties": {"id": "westside-06", "layer": "roof", "label": "碼頭倉庫屋頂", "confidence": "medium", "method": "manual aerial interpretation; roof projection, not surveyed footprint", "source_year": "1951"}, "geometry": {"type": "Polygon", "coordinates": [[[-74.01235276321455, 40.741784578452176], [-74.00943750571554, 40.741560752173264], [-74.00947603334768, 40.74133692514117], [-74.01242981847884, 40.74155102057883], [-74.01235276321455, 40.741784578452176]]]}}, {"type": "Feature", "properties": {"id": "westside-07", "layer": "roof", "label": "碼頭倉庫屋頂", "confidence": "medium", "method": "manual aerial interpretation; roof projection, not surveyed footprint", "source_year": "1951"}, "geometry": {"type": "Polygon", "coordinates": [[[-74.01250687374312, 40.74091846388688], [-74.00956593115602, 40.74080168353211], [-74.00960445878817, 40.74059731741794], [-74.01258392900742, 40.7407140981315], [-74.01250687374312, 40.74091846388688]]]}}, {"type": "Feature", "properties": {"id": "westside-08", "layer": "roof", "label": "沿岸建築屋頂", "confidence": "medium", "method": "manual aerial interpretation; roof projection, not surveyed footprint", "source_year": "1951"}, "geometry": {"type": "Polygon", "coordinates": [[[-74.01221149523002, 40.740110728904526], [-74.01162073820377, 40.740071801669686], [-74.01164642329188, 40.73977011482725], [-74.01155652548354, 40.73976038297084], [-74.01155652548354, 40.73963386870796], [-74.0123142355824, 40.739682528068336], [-74.01221149523002, 40.740110728904526]]]}}, {"type": "Feature", "properties": {"id": "westside-09", "layer": "roof", "label": "碼頭倉庫屋頂", "confidence": "medium", "method": "manual aerial interpretation; roof projection, not surveyed footprint", "source_year": "1951"}, "geometry": {"type": "Polygon", "coordinates": [[[-74.012738039536, 40.73933217987936], [-74.01018237327035, 40.739225128675805], [-74.01019521581439, 40.739049953607434], [-74.01280225225624, 40.73915700509292], [-74.012738039536, 40.73933217987936]]]}}, {"type": "Feature", "properties": {"id": "westside-10", "layer": "roof", "label": "碼頭倉庫屋頂", "confidence": "medium", "method": "manual aerial interpretation; roof projection, not surveyed footprint", "source_year": "1951"}, "geometry": {"type": "Polygon", "coordinates": [[[-74.01281509480029, 40.73844656928547], [-74.01029795616678, 40.738329784591], [-74.01032364125489, 40.73813514297793], [-74.01286646497648, 40.738251928014115], [-74.01281509480029, 40.73844656928547]]]}}, {"type": "Feature", "properties": {"id": "westside-11", "layer": "roof", "label": "碼頭倉庫屋頂（接縫北側）", "confidence": "medium", "method": "manual aerial interpretation; roof projection, not surveyed footprint", "source_year": "1951"}, "geometry": {"type": "Polygon", "coordinates": [[[-74.01334163910627, 40.737638804286895], [-74.01076028775253, 40.73752201817433], [-74.01079881538467, 40.7372787131147], [-74.01344437945866, 40.73739549965437], [-74.01334163910627, 40.737638804286895]]]}}, {"type": "Feature", "properties": {"id": "westside-12", "layer": "roof", "label": "碼頭倉庫屋頂", "confidence": "medium", "method": "manual aerial interpretation; roof projection, not surveyed footprint", "source_year": "1951"}, "geometry": {"type": "Polygon", "coordinates": [[[-74.01347006454677, 40.736607186532765], [-74.01090155573706, 40.73648066627296], [-74.0109400833692, 40.73622762503152], [-74.01359848998725, 40.736363878127285], [-74.01347006454677, 40.736607186532765]]]}}, {"type": "Feature", "properties": {"id": "westside-13", "layer": "roof", "label": "碼頭倉庫屋頂", "confidence": "medium", "method": "manual aerial interpretation; roof projection, not surveyed footprint", "source_year": "1951"}, "geometry": {"type": "Polygon", "coordinates": [[[-74.0136113325313, 40.73553662289252], [-74.01102998117754, 40.735390635606784], [-74.01108135135374, 40.735147322752034], [-74.01371407288369, 40.735283578060326], [-74.0136113325313, 40.73553662289252]]]}}, {"type": "Feature", "properties": {"id": "westside-14", "layer": "roof", "label": "陸側工業屋頂", "confidence": "medium", "method": "manual aerial interpretation; roof projection, not surveyed footprint", "source_year": "1951"}, "geometry": {"type": "Polygon", "coordinates": [[[-74.00808903859044, 40.7442368866078], [-74.0072029030511, 40.743925487409406], [-74.00735701357968, 40.74362381804557], [-74.00825599166306, 40.743944949902], [-74.00808903859044, 40.7442368866078]]]}}, {"type": "Feature", "properties": {"id": "westside-15", "layer": "roof", "label": "陸側工業屋頂", "confidence": "medium", "method": "manual aerial interpretation; roof projection, not surveyed footprint", "source_year": "1951"}, "geometry": {"type": "Polygon", "coordinates": [[[-74.00684331181773, 40.74323456523172], [-74.00473713459378, 40.74250471006559], [-74.0049040876664, 40.74223222875041], [-74.0070231074344, 40.74297181829456], [-74.00684331181773, 40.74323456523172]]]}}, {"type": "Feature", "properties": {"id": "westside-16", "layer": "roof", "label": "陸側工業屋頂", "confidence": "medium", "method": "manual aerial interpretation; roof projection, not surveyed footprint", "source_year": "1951"}, "geometry": {"type": "Polygon", "coordinates": [[[-74.00586727847003, 40.74250471006559], [-74.00532789162, 40.742310080668645], [-74.00552052978074, 40.74199867244895], [-74.00604707408672, 40.74218357125522], [-74.00586727847003, 40.74250471006559]]]}}, {"type": "Feature", "properties": {"id": "westside-17", "layer": "roof", "label": "陸側工業屋頂", "confidence": "medium", "method": "manual aerial interpretation; roof projection, not surveyed footprint", "source_year": "1951"}, "geometry": {"type": "Polygon", "coordinates": [[[-74.00528936398786, 40.74229061769762], [-74.00453165388899, 40.74202786703148], [-74.00469860696164, 40.74175538376286], [-74.00545631706049, 40.7420181355054], [-74.00528936398786, 40.74229061769762]]]}}, {"type": "Feature", "properties": {"id": "westside-18", "layer": "roof", "label": "陸側工業屋頂", "confidence": "medium", "method": "manual aerial interpretation; roof projection, not surveyed footprint", "source_year": "1951"}, "geometry": {"type": "Polygon", "coordinates": [[[-74.00462155169734, 40.74179431001244], [-74.00326024202819, 40.741327193513996], [-74.00346572273297, 40.741006049018424], [-74.00481418985807, 40.74147316777213], [-74.00462155169734, 40.74179431001244]]]}}, {"type": "Feature", "properties": {"id": "westside-19", "layer": "roof", "label": "陸側大型屋頂", "confidence": "medium", "method": "manual aerial interpretation; roof projection, not surveyed footprint", "source_year": "1951"}, "geometry": {"type": "Polygon", "coordinates": [[[-74.00347856527702, 40.74133692514117], [-74.00201451525548, 40.74083087864002], [-74.00215578324003, 40.74058758568255], [-74.00361983326155, 40.74109363403463], [-74.00347856527702, 40.74133692514117]]]}}]}