{
  "type": "FeatureCollection",
  "features": [
    {
      "type": "Feature",
      "properties": {
        "case": "A",
        "origin": "N3",
        "destination": "S1",
        "horizontal_m": 542.4099876609797
      },
      "geometry": {
        "type": "LineString",
        "coordinates": [
          [
            121.5135271,
            25.0506265
          ],
          [
            121.5134293,
            25.0502889
          ],
          [
            121.5132482,
            25.0496425
          ],
          [
            121.5132246,
            25.0495726
          ],
          [
            121.5132207,
            25.0495392
          ],
          [
            121.5131907,
            25.0493633
          ],
          [
            121.5131579,
            25.0492828
          ],
          [
            121.5120492,
            25.0496405
          ],
          [
            121.5119,
            25.049675
          ],
          [
            121.5117968,
            25.049714
          ],
          [
            121.5117777,
            25.0497485
          ],
          [
            121.5107256,
            25.0499669
          ],
          [
            121.5106626,
            25.0499341
          ],
          [
            121.5106345,
            25.0499195
          ],
          [
            121.5104695,
            25.0499592
          ],
          [
            121.5103187,
            25.049983
          ],
          [
            121.5101171,
            25.0492203
          ]
        ]
      }
    },
    {
      "type": "Feature",
      "properties": {
        "case": "B",
        "origin": "N3",
        "destination": "S1",
        "horizontal_m": 542.4099876609797
      },
      "geometry": {
        "type": "LineString",
        "coordinates": [
          [
            121.5135271,
            25.0506265
          ],
          [
            121.5134293,
            25.0502889
          ],
          [
            121.5132482,
            25.0496425
          ],
          [
            121.5132246,
            25.0495726
          ],
          [
            121.5132207,
            25.0495392
          ],
          [
            121.5131907,
            25.0493633
          ],
          [
            121.5131579,
            25.0492828
          ],
          [
            121.5120492,
            25.0496405
          ],
          [
            121.5119,
            25.049675
          ],
          [
            121.5117968,
            25.049714
          ],
          [
            121.5117777,
            25.0497485
          ],
          [
            121.5107256,
            25.0499669
          ],
          [
            121.5106626,
            25.0499341
          ],
          [
            121.5106345,
            25.0499195
          ],
          [
            121.5104695,
            25.0499592
          ],
          [
            121.5103187,
            25.049983
          ],
          [
            121.5101171,
            25.0492203
          ]
        ]
      }
    },
    {
      "type": "Feature",
      "properties": {
        "case": "A",
        "origin": "N3",
        "destination": "S2",
        "horizontal_m": 415.4940840338457
      },
      "geometry": {
        "type": "LineString",
        "coordinates": [
          [
            121.5135271,
            25.0506265
          ],
          [
            121.5134293,
            25.0502889
          ],
          [
            121.5132482,
            25.0496425
          ],
          [
            121.5132246,
            25.0495726
          ],
          [
            121.5132207,
            25.0495392
          ],
          [
            121.5131907,
            25.0493633
          ],
          [
            121.5131579,
            25.0492828
          ],
          [
            121.5120492,
            25.0496405
          ],
          [
            121.5119715,
            25.0496285
          ],
          [
            121.5118963,
            25.0495777
          ],
          [
            121.5115377,
            25.04849
          ]
        ]
      }
    },
    {
      "type": "Feature",
      "properties": {
        "case": "B",
        "origin": "N3",
        "destination": "S2",
        "horizontal_m": 415.4940840338457
      },
      "geometry": {
        "type": "LineString",
        "coordinates": [
          [
            121.5135271,
            25.0506265
          ],
          [
            121.5134293,
            25.0502889
          ],
          [
            121.5132482,
            25.0496425
          ],
          [
            121.5132246,
            25.0495726
          ],
          [
            121.5132207,
            25.0495392
          ],
          [
            121.5131907,
            25.0493633
          ],
          [
            121.5131579,
            25.0492828
          ],
          [
            121.5120492,
            25.0496405
          ],
          [
            121.5119715,
            25.0496285
          ],
          [
            121.5118963,
            25.0495777
          ],
          [
            121.5115377,
            25.04849
          ]
        ]
      }
    },
    {
      "type": "Feature",
      "properties": {
        "case": "A",
        "origin": "N3",
        "destination": "S3",
        "horizontal_m": 243.49561630188907
      },
      "geometry": {
        "type": "LineString",
        "coordinates": [
          [
            121.5135271,
            25.0506265
          ],
          [
            121.5134293,
            25.0502889
          ],
          [
            121.5132482,
            25.0496425
          ],
          [
            121.5132246,
            25.0495726
          ],
          [
            121.5132207,
            25.0495392
          ],
          [
            121.5131907,
            25.0493633
          ],
          [
            121.5131579,
            25.0492828
          ],
          [
            121.5132067,
            25.049244
          ],
          [
            121.5132296,
            25.0491793
          ],
          [
            121.5132107,
            25.0489257
          ],
          [
            121.5132038,
            25.0486815
          ],
          [
            121.5131986,
            25.0484956
          ]
        ]
      }
    },
    {
      "type": "Feature",
      "properties": {
        "case": "B",
        "origin": "N3",
        "destination": "S3",
        "horizontal_m": 243.49561630188907
      },
      "geometry": {
        "type": "LineString",
        "coordinates": [
          [
            121.5135271,
            25.0506265
          ],
          [
            121.5134293,
            25.0502889
          ],
          [
            121.5132482,
            25.0496425
          ],
          [
            121.5132246,
            25.0495726
          ],
          [
            121.5132207,
            25.0495392
          ],
          [
            121.5131907,
            25.0493633
          ],
          [
            121.5131579,
            25.0492828
          ],
          [
            121.5132067,
            25.049244
          ],
          [
            121.5132296,
            25.0491793
          ],
          [
            121.5132107,
            25.0489257
          ],
          [
            121.5132038,
            25.0486815
          ],
          [
            121.5131986,
            25.0484956
          ]
        ]
      }
    },
    {
      "type": "Feature",
      "properties": {
        "case": "A",
        "origin": "N3",
        "destination": "S4",
        "horizontal_m": 294.6828932485225
      },
      "geometry": {
        "type": "LineString",
        "coordinates": [
          [
            121.5135271,
            25.0506265
          ],
          [
            121.5134293,
            25.0502889
          ],
          [
            121.5132482,
            25.0496425
          ],
          [
            121.5132246,
            25.0495726
          ],
          [
            121.5132207,
            25.0495392
          ],
          [
            121.5131907,
            25.0493633
          ],
          [
            121.5131579,
            25.0492828
          ],
          [
            121.5132067,
            25.049244
          ],
          [
            121.5132296,
            25.0491793
          ],
          [
            121.5132107,
            25.0489257
          ],
          [
            121.5132038,
            25.0486815
          ],
          [
            121.5131986,
            25.0484956
          ],
          [
            121.5132026,
            25.0484106
          ],
          [
            121.5132004,
            25.0483732
          ],
          [
            121.5132034,
            25.048347
          ],
          [
            121.5132808,
            25.0483461
          ],
          [
            121.5133783,
            25.0483451
          ],
          [
            121.513468,
            25.0483442
          ],
          [
            121.5134804,
            25.0482729
          ]
        ]
      }
    },
    {
      "type": "Feature",
      "properties": {
        "case": "B",
        "origin": "N3",
        "destination": "S4",
        "horizontal_m": 294.6828932485225
      },
      "geometry": {
        "type": "LineString",
        "coordinates": [
          [
            121.5135271,
            25.0506265
          ],
          [
            121.5134293,
            25.0502889
          ],
          [
            121.5132482,
            25.0496425
          ],
          [
            121.5132246,
            25.0495726
          ],
          [
            121.5132207,
            25.0495392
          ],
          [
            121.5131907,
            25.0493633
          ],
          [
            121.5131579,
            25.0492828
          ],
          [
            121.5132067,
            25.049244
          ],
          [
            121.5132296,
            25.0491793
          ],
          [
            121.5132107,
            25.0489257
          ],
          [
            121.5132038,
            25.0486815
          ],
          [
            121.5131986,
            25.0484956
          ],
          [
            121.5132026,
            25.0484106
          ],
          [
            121.5132004,
            25.0483732
          ],
          [
            121.5132034,
            25.048347
          ],
          [
            121.5132808,
            25.0483461
          ],
          [
            121.5133783,
            25.0483451
          ],
          [
            121.513468,
            25.0483442
          ],
          [
            121.5134804,
            25.0482729
          ]
        ]
      }
    },
    {
      "type": "Feature",
      "properties": {
        "case": "A",
        "origin": "N3",
        "destination": "S5",
        "horizontal_m": 506.7212745603077
      },
      "geometry": {
        "type": "LineString",
        "coordinates": [
          [
            121.5135271,
            25.0506265
          ],
          [
            121.5134293,
            25.0502889
          ],
          [
            121.5132482,
            25.0496425
          ],
          [
            121.5132246,
            25.0495726
          ],
          [
            121.5132207,
            25.0495392
          ],
          [
            121.5131907,
            25.0493633
          ],
          [
            121.5131579,
            25.0492828
          ],
          [
            121.5132067,
            25.049244
          ],
          [
            121.5132296,
            25.0491793
          ],
          [
            121.5132107,
            25.0489257
          ],
          [
            121.5132038,
            25.0486815
          ],
          [
            121.5131986,
            25.0484956
          ],
          [
            121.5132026,
            25.0484106
          ],
          [
            121.5132004,
            25.0483732
          ],
          [
            121.5132034,
            25.048347
          ],
          [
            121.5132808,
            25.0483461
          ],
          [
            121.5133783,
            25.0483451
          ],
          [
            121.513468,
            25.0483442
          ],
          [
            121.5134804,
            25.0482729
          ],
          [
            121.513488,
            25.0482289
          ],
          [
            121.5134951,
            25.0481333
          ],
          [
            121.5135275,
            25.048095
          ],
          [
            121.5135164,
            25.0480304
          ],
          [
            121.5135087,
            25.0479859
          ],
          [
            121.5135017,
            25.0477736
          ],
          [
            121.5134359,
            25.0477761
          ],
          [
            121.5134336,
            25.0476327
          ],
          [
            121.5134846,
            25.0476194
          ],
          [
            121.5143287,
            25.0474123
          ],
          [
            121.5144767,
            25.047376
          ],
          [
            121.514552,
            25.0475798
          ]
        ]
      }
    },
    {
      "type": "Feature",
      "properties": {
        "case": "B",
        "origin": "N3",
        "destination": "S5",
        "horizontal_m": 506.7212745603077
      },
      "geometry": {
        "type": "LineString",
        "coordinates": [
          [
            121.5135271,
            25.0506265
          ],
          [
            121.5134293,
            25.0502889
          ],
          [
            121.5132482,
            25.0496425
          ],
          [
            121.5132246,
            25.0495726
          ],
          [
            121.5132207,
            25.0495392
          ],
          [
            121.5131907,
            25.0493633
          ],
          [
            121.5131579,
            25.0492828
          ],
          [
            121.5132067,
            25.049244
          ],
          [
            121.5132296,
            25.0491793
          ],
          [
            121.5132107,
            25.0489257
          ],
          [
            121.5132038,
            25.0486815
          ],
          [
            121.5131986,
            25.0484956
          ],
          [
            121.5132026,
            25.0484106
          ],
          [
            121.5132004,
            25.0483732
          ],
          [
            121.5132034,
            25.048347
          ],
          [
            121.5132808,
            25.0483461
          ],
          [
            121.5133783,
            25.0483451
          ],
          [
            121.513468,
            25.0483442
          ],
          [
            121.5134804,
            25.0482729
          ],
          [
            121.513488,
            25.0482289
          ],
          [
            121.5134951,
            25.0481333
          ],
          [
            121.5135275,
            25.048095
          ],
          [
            121.5135164,
            25.0480304
          ],
          [
            121.5135087,
            25.0479859
          ],
          [
            121.5135017,
            25.0477736
          ],
          [
            121.5134359,
            25.0477761
          ],
          [
            121.5134336,
            25.0476327
          ],
          [
            121.5134846,
            25.0476194
          ],
          [
            121.5143287,
            25.0474123
          ],
          [
            121.5144767,
            25.047376
          ],
          [
            121.514552,
            25.0475798
          ]
        ]
      }
    },
    {
      "type": "Feature",
      "properties": {
        "case": "A",
        "origin": "N3",
        "destination": "S6",
        "horizontal_m": 654.2554284645917
      },
      "geometry": {
        "type": "LineString",
        "coordinates": [
          [
            121.5135271,
            25.0506265
          ],
          [
            121.5134293,
            25.0502889
          ],
          [
            121.5132482,
            25.0496425
          ],
          [
            121.5132246,
            25.0495726
          ],
          [
            121.5132207,
            25.0495392
          ],
          [
            121.5131907,
            25.0493633
          ],
          [
            121.5131579,
            25.0492828
          ],
          [
            121.5132067,
            25.049244
          ],
          [
            121.5132296,
            25.0491793
          ],
          [
            121.5132626,
            25.0491793
          ],
          [
            121.5133872,
            25.0491736
          ],
          [
            121.5135115,
            25.0491794
          ],
          [
            121.5138246,
            25.0491043
          ],
          [
            121.5139576,
            25.0490724
          ],
          [
            121.514999,
            25.0488226
          ],
          [
            121.5162511,
            25.0486106
          ],
          [
            121.5162992,
            25.0486031
          ],
          [
            121.516425,
            25.0485775
          ],
          [
            121.5164537,
            25.0485732
          ],
          [
            121.5164825,
            25.0485689
          ],
          [
            121.5164792,
            25.0485529
          ],
          [
            121.5164792,
            25.0485529
          ],
          [
            121.5164758,
            25.0485369
          ],
          [
            121.5164758,
            25.0485369
          ],
          [
            121.5164542,
            25.0484345
          ],
          [
            121.5164542,
            25.0484345
          ],
          [
            121.5164513,
            25.0484209
          ],
          [
            121.5164513,
            25.0484209
          ],
          [
            121.5163904,
            25.0481268
          ],
          [
            121.5163336,
            25.047852
          ],
          [
            121.5162768,
            25.0475778
          ],
          [
            121.5162476,
            25.0474366
          ],
          [
            121.5161734,
            25.047445
          ],
          [
            121.5161498,
            25.0474479
          ],
          [
            121.5161257,
            25.0474507
          ],
          [
            121.5160222,
            25.0474628
          ]
        ]
      }
    },
    {
      "type": "Feature",
      "properties": {
        "case": "B",
        "origin": "N3",
        "destination": "S6",
        "horizontal_m": 654.2554284645917
      },
      "geometry": {
        "type": "LineString",
        "coordinates": [
          [
            121.5135271,
            25.0506265
          ],
          [
            121.5134293,
            25.0502889
          ],
          [
            121.5132482,
            25.0496425
          ],
          [
            121.5132246,
            25.0495726
          ],
          [
            121.5132207,
            25.0495392
          ],
          [
            121.5131907,
            25.0493633
          ],
          [
            121.5131579,
            25.0492828
          ],
          [
            121.5132067,
            25.049244
          ],
          [
            121.5132296,
            25.0491793
          ],
          [
            121.5132626,
            25.0491793
          ],
          [
            121.5133872,
            25.0491736
          ],
          [
            121.5135115,
            25.0491794
          ],
          [
            121.5138246,
            25.0491043
          ],
          [
            121.5139576,
            25.0490724
          ],
          [
            121.514999,
            25.0488226
          ],
          [
            121.5162511,
            25.0486106
          ],
          [
            121.5162992,
            25.0486031
          ],
          [
            121.516425,
            25.0485775
          ],
          [
            121.5164537,
            25.0485732
          ],
          [
            121.5164825,
            25.0485689
          ],
          [
            121.5164792,
            25.0485529
          ],
          [
            121.5164792,
            25.0485529
          ],
          [
            121.5164758,
            25.0485369
          ],
          [
            121.5164758,
            25.0485369
          ],
          [
            121.5164542,
            25.0484345
          ],
          [
            121.5164542,
            25.0484345
          ],
          [
            121.5164513,
            25.0484209
          ],
          [
            121.5164513,
            25.0484209
          ],
          [
            121.5163904,
            25.0481268
          ],
          [
            121.5163336,
            25.047852
          ],
          [
            121.5162768,
            25.0475778
          ],
          [
            121.5162476,
            25.0474366
          ],
          [
            121.5161734,
            25.047445
          ],
          [
            121.5161498,
            25.0474479
          ],
          [
            121.5161257,
            25.0474507
          ],
          [
            121.5160222,
            25.0474628
          ]
        ]
      }
    },
    {
      "type": "Feature",
      "properties": {
        "case": "A",
        "origin": "N3",
        "destination": "S7",
        "horizontal_m": 585.9202558488878
      },
      "geometry": {
        "type": "LineString",
        "coordinates": [
          [
            121.5135271,
            25.0506265
          ],
          [
            121.5134293,
            25.0502889
          ],
          [
            121.5132482,
            25.0496425
          ],
          [
            121.5132246,
            25.0495726
          ],
          [
            121.5132207,
            25.0495392
          ],
          [
            121.5131907,
            25.0493633
          ],
          [
            121.5131579,
            25.0492828
          ],
          [
            121.5132067,
            25.049244
          ],
          [
            121.5132296,
            25.0491793
          ],
          [
            121.5132626,
            25.0491793
          ],
          [
            121.5133872,
            25.0491736
          ],
          [
            121.5135115,
            25.0491794
          ],
          [
            121.5138246,
            25.0491043
          ],
          [
            121.5139576,
            25.0490724
          ],
          [
            121.514999,
            25.0488226
          ],
          [
            121.5162511,
            25.0486106
          ],
          [
            121.5162992,
            25.0486031
          ],
          [
            121.516425,
            25.0485775
          ],
          [
            121.5164537,
            25.0485732
          ],
          [
            121.5164825,
            25.0485689
          ],
          [
            121.5164792,
            25.0485529
          ],
          [
            121.5164792,
            25.0485529
          ],
          [
            121.5164758,
            25.0485369
          ],
          [
            121.5164758,
            25.0485369
          ],
          [
            121.5164542,
            25.0484345
          ],
          [
            121.5164542,
            25.0484345
          ],
          [
            121.5164513,
            25.0484209
          ],
          [
            121.5164513,
            25.0484209
          ],
          [
            121.5163904,
            25.0481268
          ],
          [
            121.5163336,
            25.047852
          ],
          [
            121.5163475,
            25.0478502
          ]
        ]
      }
    },
    {
      "type": "Feature",
      "properties": {
        "case": "B",
        "origin": "N3",
        "destination": "S7",
        "horizontal_m": 585.9202558488878
      },
      "geometry": {
        "type": "LineString",
        "coordinates": [
          [
            121.5135271,
            25.0506265
          ],
          [
            121.5134293,
            25.0502889
          ],
          [
            121.5132482,
            25.0496425
          ],
          [
            121.5132246,
            25.0495726
          ],
          [
            121.5132207,
            25.0495392
          ],
          [
            121.5131907,
            25.0493633
          ],
          [
            121.5131579,
            25.0492828
          ],
          [
            121.5132067,
            25.049244
          ],
          [
            121.5132296,
            25.0491793
          ],
          [
            121.5132626,
            25.0491793
          ],
          [
            121.5133872,
            25.0491736
          ],
          [
            121.5135115,
            25.0491794
          ],
          [
            121.5138246,
            25.0491043
          ],
          [
            121.5139576,
            25.0490724
          ],
          [
            121.514999,
            25.0488226
          ],
          [
            121.5162511,
            25.0486106
          ],
          [
            121.5162992,
            25.0486031
          ],
          [
            121.516425,
            25.0485775
          ],
          [
            121.5164537,
            25.0485732
          ],
          [
            121.5164825,
            25.0485689
          ],
          [
            121.5164792,
            25.0485529
          ],
          [
            121.5164792,
            25.0485529
          ],
          [
            121.5164758,
            25.0485369
          ],
          [
            121.5164758,
            25.0485369
          ],
          [
            121.5164542,
            25.0484345
          ],
          [
            121.5164542,
            25.0484345
          ],
          [
            121.5164513,
            25.0484209
          ],
          [
            121.5164513,
            25.0484209
          ],
          [
            121.5163904,
            25.0481268
          ],
          [
            121.5163336,
            25.047852
          ],
          [
            121.5163475,
            25.0478502
          ]
        ]
      }
    },
    {
      "type": "Feature",
      "properties": {
        "case": "A",
        "origin": "N3",
        "destination": "S8",
        "horizontal_m": 778.8800208184132
      },
      "geometry": {
        "type": "LineString",
        "coordinates": [
          [
            121.5135271,
            25.0506265
          ],
          [
            121.5134293,
            25.0502889
          ],
          [
            121.5132482,
            25.0496425
          ],
          [
            121.5132246,
            25.0495726
          ],
          [
            121.5132207,
            25.0495392
          ],
          [
            121.5131907,
            25.0493633
          ],
          [
            121.5131579,
            25.0492828
          ],
          [
            121.5132067,
            25.049244
          ],
          [
            121.5132296,
            25.0491793
          ],
          [
            121.5132626,
            25.0491793
          ],
          [
            121.5133872,
            25.0491736
          ],
          [
            121.5135115,
            25.0491794
          ],
          [
            121.5138246,
            25.0491043
          ],
          [
            121.5139576,
            25.0490724
          ],
          [
            121.514999,
            25.0488226
          ],
          [
            121.5162511,
            25.0486106
          ],
          [
            121.5162992,
            25.0486031
          ],
          [
            121.516425,
            25.0485775
          ],
          [
            121.5164537,
            25.0485732
          ],
          [
            121.5164825,
            25.0485689
          ],
          [
            121.5164792,
            25.0485529
          ],
          [
            121.5164792,
            25.0485529
          ],
          [
            121.5164758,
            25.0485369
          ],
          [
            121.5164758,
            25.0485369
          ],
          [
            121.5164542,
            25.0484345
          ],
          [
            121.5164542,
            25.0484345
          ],
          [
            121.5164513,
            25.0484209
          ],
          [
            121.5164513,
            25.0484209
          ],
          [
            121.5164898,
            25.0484141
          ],
          [
            121.5165688,
            25.0484002
          ],
          [
            121.5167223,
            25.0483744
          ],
          [
            121.5167698,
            25.0483663
          ],
          [
            121.5172349,
            25.048288
          ],
          [
            121.5177108,
            25.0482079
          ],
          [
            121.5180021,
            25.0481588
          ],
          [
            121.5180349,
            25.0481521
          ],
          [
            121.5179747,
            25.0478712
          ],
          [
            121.517971,
            25.047854
          ],
          [
            121.5179125,
            25.0475813
          ],
          [
            121.5179114,
            25.0475758
          ],
          [
            121.5178584,
            25.0473288
          ],
          [
            121.5178288,
            25.0473339
          ]
        ]
      }
    },
    {
      "type": "Feature",
      "properties": {
        "case": "B",
        "origin": "N3",
        "destination": "S8",
        "horizontal_m": 778.8800208184132
      },
      "geometry": {
        "type": "LineString",
        "coordinates": [
          [
            121.5135271,
            25.0506265
          ],
          [
            121.5134293,
            25.0502889
          ],
          [
            121.5132482,
            25.0496425
          ],
          [
            121.5132246,
            25.0495726
          ],
          [
            121.5132207,
            25.0495392
          ],
          [
            121.5131907,
            25.0493633
          ],
          [
            121.5131579,
            25.0492828
          ],
          [
            121.5132067,
            25.049244
          ],
          [
            121.5132296,
            25.0491793
          ],
          [
            121.5132626,
            25.0491793
          ],
          [
            121.5133872,
            25.0491736
          ],
          [
            121.5135115,
            25.0491794
          ],
          [
            121.5138246,
            25.0491043
          ],
          [
            121.5139576,
            25.0490724
          ],
          [
            121.514999,
            25.0488226
          ],
          [
            121.5162511,
            25.0486106
          ],
          [
            121.5162992,
            25.0486031
          ],
          [
            121.516425,
            25.0485775
          ],
          [
            121.5164537,
            25.0485732
          ],
          [
            121.5164825,
            25.0485689
          ],
          [
            121.5164792,
            25.0485529
          ],
          [
            121.5164792,
            25.0485529
          ],
          [
            121.5164758,
            25.0485369
          ],
          [
            121.5164758,
            25.0485369
          ],
          [
            121.5164542,
            25.0484345
          ],
          [
            121.5164542,
            25.0484345
          ],
          [
            121.5164513,
            25.0484209
          ],
          [
            121.5164513,
            25.0484209
          ],
          [
            121.5164898,
            25.0484141
          ],
          [
            121.5165688,
            25.0484002
          ],
          [
            121.5167223,
            25.0483744
          ],
          [
            121.5167698,
            25.0483663
          ],
          [
            121.5172349,
            25.048288
          ],
          [
            121.5177108,
            25.0482079
          ],
          [
            121.5180021,
            25.0481588
          ],
          [
            121.5180349,
            25.0481521
          ],
          [
            121.5179747,
            25.0478712
          ],
          [
            121.517971,
            25.047854
          ],
          [
            121.5179125,
            25.0475813
          ],
          [
            121.5179114,
            25.0475758
          ],
          [
            121.5178584,
            25.0473288
          ],
          [
            121.5178288,
            25.0473339
          ]
        ]
      }
    },
    {
      "type": "Feature",
      "properties": {
        "case": "A",
        "origin": "N8",
        "destination": "S1",
        "horizontal_m": 1072.4733485694512
      },
      "geometry": {
        "type": "LineString",
        "coordinates": [
          [
            121.5180178,
            25.0488154
          ],
          [
            121.5180143,
            25.0487981
          ],
          [
            121.5180127,
            25.04879
          ],
          [
            121.5179989,
            25.0487237
          ],
          [
            121.5173573,
            25.0488283
          ],
          [
            121.5167752,
            25.0489232
          ],
          [
            121.5168024,
            25.0490443
          ],
          [
            121.5168584,
            25.0492892
          ],
          [
            121.5168918,
            25.0494249
          ],
          [
            121.5168739,
            25.0495356
          ],
          [
            121.5167391,
            25.0495649
          ],
          [
            121.5165924,
            25.0495968
          ],
          [
            121.5165018,
            25.0496133
          ],
          [
            121.5163634,
            25.049041
          ],
          [
            121.51633,
            25.0489053
          ],
          [
            121.5162785,
            25.0486962
          ],
          [
            121.5162511,
            25.0486106
          ],
          [
            121.514999,
            25.0488226
          ],
          [
            121.5139576,
            25.0490724
          ],
          [
            121.5138246,
            25.0491043
          ],
          [
            121.5135115,
            25.0491794
          ],
          [
            121.5133872,
            25.0491736
          ],
          [
            121.5132626,
            25.0491793
          ],
          [
            121.5132296,
            25.0491793
          ],
          [
            121.5132067,
            25.049244
          ],
          [
            121.5131579,
            25.0492828
          ],
          [
            121.5120492,
            25.0496405
          ],
          [
            121.5119,
            25.049675
          ],
          [
            121.5117968,
            25.049714
          ],
          [
            121.5117777,
            25.0497485
          ],
          [
            121.5107256,
            25.0499669
          ],
          [
            121.5106626,
            25.0499341
          ],
          [
            121.5106345,
            25.0499195
          ],
          [
            121.5104695,
            25.0499592
          ],
          [
            121.5103187,
            25.049983
          ],
          [
            121.5101171,
            25.0492203
          ]
        ]
      }
    },
    {
      "type": "Feature",
      "properties": {
        "case": "B",
        "origin": "N8",
        "destination": "S1",
        "horizontal_m": 1005.0509311804262
      },
      "geometry": {
        "type": "LineString",
        "coordinates": [
          [
            121.5180178,
            25.0488154
          ],
          [
            121.5180143,
            25.0487981
          ],
          [
            121.5180127,
            25.04879
          ],
          [
            121.5179989,
            25.0487237
          ],
          [
            121.5173573,
            25.0488283
          ],
          [
            121.5167752,
            25.0489232
          ],
          [
            121.5168024,
            25.0490443
          ],
          [
            121.5168339,
            25.0490397
          ],
          [
            121.5168339,
            25.0490397
          ],
          [
            121.5168049,
            25.0489087
          ],
          [
            121.5167068,
            25.0489255
          ],
          [
            121.5167068,
            25.0489255
          ],
          [
            121.5166007,
            25.0485588
          ],
          [
            121.5165803,
            25.0484614
          ],
          [
            121.5165803,
            25.0484614
          ],
          [
            121.5165688,
            25.0484002
          ],
          [
            121.5165688,
            25.0484002
          ],
          [
            121.5164898,
            25.0484141
          ],
          [
            121.5164513,
            25.0484209
          ],
          [
            121.5164513,
            25.0484209
          ],
          [
            121.5164542,
            25.0484345
          ],
          [
            121.5164542,
            25.0484345
          ],
          [
            121.5164758,
            25.0485369
          ],
          [
            121.5164758,
            25.0485369
          ],
          [
            121.5164792,
            25.0485529
          ],
          [
            121.5164792,
            25.0485529
          ],
          [
            121.5164825,
            25.0485689
          ],
          [
            121.5164537,
            25.0485732
          ],
          [
            121.516425,
            25.0485775
          ],
          [
            121.5162992,
            25.0486031
          ],
          [
            121.5162511,
            25.0486106
          ],
          [
            121.514999,
            25.0488226
          ],
          [
            121.5139576,
            25.0490724
          ],
          [
            121.5138246,
            25.0491043
          ],
          [
            121.5135115,
            25.0491794
          ],
          [
            121.5133872,
            25.0491736
          ],
          [
            121.5132626,
            25.0491793
          ],
          [
            121.5132296,
            25.0491793
          ],
          [
            121.5132067,
            25.049244
          ],
          [
            121.5131579,
            25.0492828
          ],
          [
            121.5120492,
            25.0496405
          ],
          [
            121.5119,
            25.049675
          ],
          [
            121.5117968,
            25.049714
          ],
          [
            121.5117777,
            25.0497485
          ],
          [
            121.5107256,
            25.0499669
          ],
          [
            121.5106626,
            25.0499341
          ],
          [
            121.5106345,
            25.0499195
          ],
          [
            121.5104695,
            25.0499592
          ],
          [
            121.5103187,
            25.049983
          ],
          [
            121.5101171,
            25.0492203
          ]
        ]
      }
    },
    {
      "type": "Feature",
      "properties": {
        "case": "A",
        "origin": "N8",
        "destination": "S2",
        "horizontal_m": 945.5574449423173
      },
      "geometry": {
        "type": "LineString",
        "coordinates": [
          [
            121.5180178,
            25.0488154
          ],
          [
            121.5180143,
            25.0487981
          ],
          [
            121.5180127,
            25.04879
          ],
          [
            121.5179989,
            25.0487237
          ],
          [
            121.5173573,
            25.0488283
          ],
          [
            121.5167752,
            25.0489232
          ],
          [
            121.5168024,
            25.0490443
          ],
          [
            121.5168584,
            25.0492892
          ],
          [
            121.5168918,
            25.0494249
          ],
          [
            121.5168739,
            25.0495356
          ],
          [
            121.5167391,
            25.0495649
          ],
          [
            121.5165924,
            25.0495968
          ],
          [
            121.5165018,
            25.0496133
          ],
          [
            121.5163634,
            25.049041
          ],
          [
            121.51633,
            25.0489053
          ],
          [
            121.5162785,
            25.0486962
          ],
          [
            121.5162511,
            25.0486106
          ],
          [
            121.514999,
            25.0488226
          ],
          [
            121.5139576,
            25.0490724
          ],
          [
            121.5138246,
            25.0491043
          ],
          [
            121.5135115,
            25.0491794
          ],
          [
            121.5133872,
            25.0491736
          ],
          [
            121.5132626,
            25.0491793
          ],
          [
            121.5132296,
            25.0491793
          ],
          [
            121.5132067,
            25.049244
          ],
          [
            121.5131579,
            25.0492828
          ],
          [
            121.5120492,
            25.0496405
          ],
          [
            121.5119715,
            25.0496285
          ],
          [
            121.5118963,
            25.0495777
          ],
          [
            121.5115377,
            25.04849
          ]
        ]
      }
    },
    {
      "type": "Feature",
      "properties": {
        "case": "B",
        "origin": "N8",
        "destination": "S2",
        "horizontal_m": 878.1350275532923
      },
      "geometry": {
        "type": "LineString",
        "coordinates": [
          [
            121.5180178,
            25.0488154
          ],
          [
            121.5180143,
            25.0487981
          ],
          [
            121.5180127,
            25.04879
          ],
          [
            121.5179989,
            25.0487237
          ],
          [
            121.5173573,
            25.0488283
          ],
          [
            121.5167752,
            25.0489232
          ],
          [
            121.5168024,
            25.0490443
          ],
          [
            121.5168339,
            25.0490397
          ],
          [
            121.5168339,
            25.0490397
          ],
          [
            121.5168049,
            25.0489087
          ],
          [
            121.5167068,
            25.0489255
          ],
          [
            121.5167068,
            25.0489255
          ],
          [
            121.5166007,
            25.0485588
          ],
          [
            121.5165803,
            25.0484614
          ],
          [
            121.5165803,
            25.0484614
          ],
          [
            121.5165688,
            25.0484002
          ],
          [
            121.5165688,
            25.0484002
          ],
          [
            121.5164898,
            25.0484141
          ],
          [
            121.5164513,
            25.0484209
          ],
          [
            121.5164513,
            25.0484209
          ],
          [
            121.5164542,
            25.0484345
          ],
          [
            121.5164542,
            25.0484345
          ],
          [
            121.5164758,
            25.0485369
          ],
          [
            121.5164758,
            25.0485369
          ],
          [
            121.5164792,
            25.0485529
          ],
          [
            121.5164792,
            25.0485529
          ],
          [
            121.5164825,
            25.0485689
          ],
          [
            121.5164537,
            25.0485732
          ],
          [
            121.516425,
            25.0485775
          ],
          [
            121.5162992,
            25.0486031
          ],
          [
            121.5162511,
            25.0486106
          ],
          [
            121.514999,
            25.0488226
          ],
          [
            121.5139576,
            25.0490724
          ],
          [
            121.5138246,
            25.0491043
          ],
          [
            121.5135115,
            25.0491794
          ],
          [
            121.5133872,
            25.0491736
          ],
          [
            121.5132626,
            25.0491793
          ],
          [
            121.5132296,
            25.0491793
          ],
          [
            121.5132067,
            25.049244
          ],
          [
            121.5131579,
            25.0492828
          ],
          [
            121.5120492,
            25.0496405
          ],
          [
            121.5119715,
            25.0496285
          ],
          [
            121.5118963,
            25.0495777
          ],
          [
            121.5115377,
            25.04849
          ]
        ]
      }
    },
    {
      "type": "Feature",
      "properties": {
        "case": "A",
        "origin": "N8",
        "destination": "S3",
        "horizontal_m": 745.4275884940052
      },
      "geometry": {
        "type": "LineString",
        "coordinates": [
          [
            121.5180178,
            25.0488154
          ],
          [
            121.5180143,
            25.0487981
          ],
          [
            121.5180127,
            25.04879
          ],
          [
            121.5179989,
            25.0487237
          ],
          [
            121.5173573,
            25.0488283
          ],
          [
            121.5167752,
            25.0489232
          ],
          [
            121.5168024,
            25.0490443
          ],
          [
            121.5168584,
            25.0492892
          ],
          [
            121.5168918,
            25.0494249
          ],
          [
            121.5168739,
            25.0495356
          ],
          [
            121.5167391,
            25.0495649
          ],
          [
            121.5165924,
            25.0495968
          ],
          [
            121.5165018,
            25.0496133
          ],
          [
            121.5163634,
            25.049041
          ],
          [
            121.51633,
            25.0489053
          ],
          [
            121.5162785,
            25.0486962
          ],
          [
            121.5162511,
            25.0486106
          ],
          [
            121.514999,
            25.0488226
          ],
          [
            121.5139576,
            25.0490724
          ],
          [
            121.5138246,
            25.0491043
          ],
          [
            121.5135115,
            25.0491794
          ],
          [
            121.5133872,
            25.0491736
          ],
          [
            121.5132626,
            25.0491793
          ],
          [
            121.5132296,
            25.0491793
          ],
          [
            121.5132107,
            25.0489257
          ],
          [
            121.5132038,
            25.0486815
          ],
          [
            121.5131986,
            25.0484956
          ]
        ]
      }
    },
    {
      "type": "Feature",
      "properties": {
        "case": "B",
        "origin": "N8",
        "destination": "S3",
        "horizontal_m": 678.0051711049803
      },
      "geometry": {
        "type": "LineString",
        "coordinates": [
          [
            121.5180178,
            25.0488154
          ],
          [
            121.5180143,
            25.0487981
          ],
          [
            121.5180127,
            25.04879
          ],
          [
            121.5179989,
            25.0487237
          ],
          [
            121.5173573,
            25.0488283
          ],
          [
            121.5167752,
            25.0489232
          ],
          [
            121.5168024,
            25.0490443
          ],
          [
            121.5168339,
            25.0490397
          ],
          [
            121.5168339,
            25.0490397
          ],
          [
            121.5168049,
            25.0489087
          ],
          [
            121.5167068,
            25.0489255
          ],
          [
            121.5167068,
            25.0489255
          ],
          [
            121.5166007,
            25.0485588
          ],
          [
            121.5165803,
            25.0484614
          ],
          [
            121.5165803,
            25.0484614
          ],
          [
            121.5165688,
            25.0484002
          ],
          [
            121.5165688,
            25.0484002
          ],
          [
            121.5164898,
            25.0484141
          ],
          [
            121.5164513,
            25.0484209
          ],
          [
            121.5164513,
            25.0484209
          ],
          [
            121.5164542,
            25.0484345
          ],
          [
            121.5164542,
            25.0484345
          ],
          [
            121.5164758,
            25.0485369
          ],
          [
            121.5164758,
            25.0485369
          ],
          [
            121.5164792,
            25.0485529
          ],
          [
            121.5164792,
            25.0485529
          ],
          [
            121.5164825,
            25.0485689
          ],
          [
            121.5164537,
            25.0485732
          ],
          [
            121.516425,
            25.0485775
          ],
          [
            121.5162992,
            25.0486031
          ],
          [
            121.5162511,
            25.0486106
          ],
          [
            121.514999,
            25.0488226
          ],
          [
            121.5139576,
            25.0490724
          ],
          [
            121.5138246,
            25.0491043
          ],
          [
            121.5135115,
            25.0491794
          ],
          [
            121.5133872,
            25.0491736
          ],
          [
            121.5132626,
            25.0491793
          ],
          [
            121.5132296,
            25.0491793
          ],
          [
            121.5132107,
            25.0489257
          ],
          [
            121.5132038,
            25.0486815
          ],
          [
            121.5131986,
            25.0484956
          ]
        ]
      }
    },
    {
      "type": "Feature",
      "properties": {
        "case": "A",
        "origin": "N8",
        "destination": "S4",
        "horizontal_m": 741.81094361499
      },
      "geometry": {
        "type": "LineString",
        "coordinates": [
          [
            121.5180178,
            25.0488154
          ],
          [
            121.5180143,
            25.0487981
          ],
          [
            121.5180127,
            25.04879
          ],
          [
            121.5179989,
            25.0487237
          ],
          [
            121.5173573,
            25.0488283
          ],
          [
            121.5167752,
            25.0489232
          ],
          [
            121.5168024,
            25.0490443
          ],
          [
            121.5168584,
            25.0492892
          ],
          [
            121.5168918,
            25.0494249
          ],
          [
            121.5168739,
            25.0495356
          ],
          [
            121.5167391,
            25.0495649
          ],
          [
            121.5165924,
            25.0495968
          ],
          [
            121.5165018,
            25.0496133
          ],
          [
            121.5163634,
            25.049041
          ],
          [
            121.51633,
            25.0489053
          ],
          [
            121.5162785,
            25.0486962
          ],
          [
            121.5162511,
            25.0486106
          ],
          [
            121.514999,
            25.0488226
          ],
          [
            121.5139576,
            25.0490724
          ],
          [
            121.5138246,
            25.0491043
          ],
          [
            121.5135115,
            25.0491794
          ],
          [
            121.5135004,
            25.0491213
          ],
          [
            121.5134969,
            25.0490297
          ],
          [
            121.5134738,
            25.0484207
          ],
          [
            121.513468,
            25.0483442
          ],
          [
            121.5134804,
            25.0482729
          ]
        ]
      }
    },
    {
      "type": "Feature",
      "properties": {
        "case": "B",
        "origin": "N8",
        "destination": "S4",
        "horizontal_m": 674.388526225965
      },
      "geometry": {
        "type": "LineString",
        "coordinates": [
          [
            121.5180178,
            25.0488154
          ],
          [
            121.5180143,
            25.0487981
          ],
          [
            121.5180127,
            25.04879
          ],
          [
            121.5179989,
            25.0487237
          ],
          [
            121.5173573,
            25.0488283
          ],
          [
            121.5167752,
            25.0489232
          ],
          [
            121.5168024,
            25.0490443
          ],
          [
            121.5168339,
            25.0490397
          ],
          [
            121.5168339,
            25.0490397
          ],
          [
            121.5168049,
            25.0489087
          ],
          [
            121.5167068,
            25.0489255
          ],
          [
            121.5167068,
            25.0489255
          ],
          [
            121.5166007,
            25.0485588
          ],
          [
            121.5165803,
            25.0484614
          ],
          [
            121.5165803,
            25.0484614
          ],
          [
            121.5165688,
            25.0484002
          ],
          [
            121.5165688,
            25.0484002
          ],
          [
            121.5164898,
            25.0484141
          ],
          [
            121.5164513,
            25.0484209
          ],
          [
            121.5164513,
            25.0484209
          ],
          [
            121.5164542,
            25.0484345
          ],
          [
            121.5164542,
            25.0484345
          ],
          [
            121.5164758,
            25.0485369
          ],
          [
            121.5164758,
            25.0485369
          ],
          [
            121.5164792,
            25.0485529
          ],
          [
            121.5164792,
            25.0485529
          ],
          [
            121.5164825,
            25.0485689
          ],
          [
            121.5164537,
            25.0485732
          ],
          [
            121.516425,
            25.0485775
          ],
          [
            121.5162992,
            25.0486031
          ],
          [
            121.5162511,
            25.0486106
          ],
          [
            121.514999,
            25.0488226
          ],
          [
            121.5139576,
            25.0490724
          ],
          [
            121.5138246,
            25.0491043
          ],
          [
            121.5135115,
            25.0491794
          ],
          [
            121.5135004,
            25.0491213
          ],
          [
            121.5134969,
            25.0490297
          ],
          [
            121.5134738,
            25.0484207
          ],
          [
            121.513468,
            25.0483442
          ],
          [
            121.5134804,
            25.0482729
          ]
        ]
      }
    },
    {
      "type": "Feature",
      "properties": {
        "case": "A",
        "origin": "N8",
        "destination": "S5",
        "horizontal_m": 910.0068503049188
      },
      "geometry": {
        "type": "LineString",
        "coordinates": [
          [
            121.5180178,
            25.0488154
          ],
          [
            121.5180143,
            25.0487981
          ],
          [
            121.5180127,
            25.04879
          ],
          [
            121.5179989,
            25.0487237
          ],
          [
            121.5173573,
            25.0488283
          ],
          [
            121.5167752,
            25.0489232
          ],
          [
            121.5168024,
            25.0490443
          ],
          [
            121.5168584,
            25.0492892
          ],
          [
            121.5168918,
            25.0494249
          ],
          [
            121.5168739,
            25.0495356
          ],
          [
            121.5167391,
            25.0495649
          ],
          [
            121.5165924,
            25.0495968
          ],
          [
            121.5165018,
            25.0496133
          ],
          [
            121.5163634,
            25.049041
          ],
          [
            121.51633,
            25.0489053
          ],
          [
            121.5162785,
            25.0486962
          ],
          [
            121.5162511,
            25.0486106
          ],
          [
            121.5162992,
            25.0486031
          ],
          [
            121.516425,
            25.0485775
          ],
          [
            121.5164537,
            25.0485732
          ],
          [
            121.5164825,
            25.0485689
          ],
          [
            121.5164792,
            25.0485529
          ],
          [
            121.5164792,
            25.0485529
          ],
          [
            121.5164758,
            25.0485369
          ],
          [
            121.5164758,
            25.0485369
          ],
          [
            121.5164542,
            25.0484345
          ],
          [
            121.5164542,
            25.0484345
          ],
          [
            121.5164513,
            25.0484209
          ],
          [
            121.5164513,
            25.0484209
          ],
          [
            121.5163904,
            25.0481268
          ],
          [
            121.5163336,
            25.047852
          ],
          [
            121.5162768,
            25.0475778
          ],
          [
            121.5162476,
            25.0474366
          ],
          [
            121.5162164,
            25.0472862
          ],
          [
            121.5165277,
            25.0472311
          ],
          [
            121.5166657,
            25.0472067
          ],
          [
            121.5167195,
            25.0471971
          ],
          [
            121.516543,
            25.0465922
          ],
          [
            121.5165416,
            25.0465889
          ],
          [
            121.5159592,
            25.0467385
          ],
          [
            121.5152784,
            25.0468892
          ],
          [
            121.515283,
            25.0469056
          ],
          [
            121.5152309,
            25.0469177
          ],
          [
            121.5150744,
            25.0469922
          ],
          [
            121.5150422,
            25.0469974
          ],
          [
            121.5150176,
            25.0470014
          ],
          [
            121.5149673,
            25.0470088
          ],
          [
            121.5149351,
            25.0471027
          ],
          [
            121.5145995,
            25.0472008
          ],
          [
            121.5144657,
            25.0473403
          ],
          [
            121.5144767,
            25.047376
          ],
          [
            121.514552,
            25.0475798
          ]
        ]
      }
    },
    {
      "type": "Feature",
      "properties": {
        "case": "B",
        "origin": "N8",
        "destination": "S5",
        "horizontal_m": 761.5780099741047
      },
      "geometry": {
        "type": "LineString",
        "coordinates": [
          [
            121.5180178,
            25.0488154
          ],
          [
            121.5180143,
            25.0487981
          ],
          [
            121.5180127,
            25.04879
          ],
          [
            121.5179989,
            25.0487237
          ],
          [
            121.5173573,
            25.0488283
          ],
          [
            121.5167752,
            25.0489232
          ],
          [
            121.5168024,
            25.0490443
          ],
          [
            121.5168339,
            25.0490397
          ],
          [
            121.5168339,
            25.0490397
          ],
          [
            121.5168049,
            25.0489087
          ],
          [
            121.5167068,
            25.0489255
          ],
          [
            121.5167068,
            25.0489255
          ],
          [
            121.5166007,
            25.0485588
          ],
          [
            121.5165803,
            25.0484614
          ],
          [
            121.5165803,
            25.0484614
          ],
          [
            121.5165688,
            25.0484002
          ],
          [
            121.5165688,
            25.0484002
          ],
          [
            121.5164898,
            25.0484141
          ],
          [
            121.5164513,
            25.0484209
          ],
          [
            121.5163904,
            25.0481268
          ],
          [
            121.5163336,
            25.047852
          ],
          [
            121.5162768,
            25.0475778
          ],
          [
            121.5162476,
            25.0474366
          ],
          [
            121.5162164,
            25.0472862
          ],
          [
            121.5165277,
            25.0472311
          ],
          [
            121.5166657,
            25.0472067
          ],
          [
            121.5167195,
            25.0471971
          ],
          [
            121.516543,
            25.0465922
          ],
          [
            121.5165416,
            25.0465889
          ],
          [
            121.5159592,
            25.0467385
          ],
          [
            121.5152784,
            25.0468892
          ],
          [
            121.515283,
            25.0469056
          ],
          [
            121.5152309,
            25.0469177
          ],
          [
            121.5150744,
            25.0469922
          ],
          [
            121.5150422,
            25.0469974
          ],
          [
            121.5150176,
            25.0470014
          ],
          [
            121.5149673,
            25.0470088
          ],
          [
            121.5149351,
            25.0471027
          ],
          [
            121.5145995,
            25.0472008
          ],
          [
            121.5144657,
            25.0473403
          ],
          [
            121.5144767,
            25.047376
          ],
          [
            121.514552,
            25.0475798
          ]
        ]
      }
    },
    {
      "type": "Feature",
      "properties": {
        "case": "A",
        "origin": "N8",
        "destination": "S6",
        "horizontal_m": 531.8042060043645
      },
      "geometry": {
        "type": "LineString",
        "coordinates": [
          [
            121.5180178,
            25.0488154
          ],
          [
            121.5180143,
            25.0487981
          ],
          [
            121.5180127,
            25.04879
          ],
          [
            121.5179989,
            25.0487237
          ],
          [
            121.5173573,
            25.0488283
          ],
          [
            121.5167752,
            25.0489232
          ],
          [
            121.5168024,
            25.0490443
          ],
          [
            121.5168584,
            25.0492892
          ],
          [
            121.5168918,
            25.0494249
          ],
          [
            121.5168739,
            25.0495356
          ],
          [
            121.5167391,
            25.0495649
          ],
          [
            121.5165924,
            25.0495968
          ],
          [
            121.5165018,
            25.0496133
          ],
          [
            121.5163634,
            25.049041
          ],
          [
            121.51633,
            25.0489053
          ],
          [
            121.5162785,
            25.0486962
          ],
          [
            121.5162511,
            25.0486106
          ],
          [
            121.5162992,
            25.0486031
          ],
          [
            121.516425,
            25.0485775
          ],
          [
            121.5164537,
            25.0485732
          ],
          [
            121.5164825,
            25.0485689
          ],
          [
            121.5164792,
            25.0485529
          ],
          [
            121.5164792,
            25.0485529
          ],
          [
            121.5164758,
            25.0485369
          ],
          [
            121.5164758,
            25.0485369
          ],
          [
            121.5164542,
            25.0484345
          ],
          [
            121.5164542,
            25.0484345
          ],
          [
            121.5164513,
            25.0484209
          ],
          [
            121.5164513,
            25.0484209
          ],
          [
            121.5163904,
            25.0481268
          ],
          [
            121.5163336,
            25.047852
          ],
          [
            121.5162768,
            25.0475778
          ],
          [
            121.5162476,
            25.0474366
          ],
          [
            121.5161734,
            25.047445
          ],
          [
            121.5161498,
            25.0474479
          ],
          [
            121.5161257,
            25.0474507
          ],
          [
            121.5160222,
            25.0474628
          ]
        ]
      }
    },
    {
      "type": "Feature",
      "properties": {
        "case": "B",
        "origin": "N8",
        "destination": "S6",
        "horizontal_m": 383.37536567355033
      },
      "geometry": {
        "type": "LineString",
        "coordinates": [
          [
            121.5180178,
            25.0488154
          ],
          [
            121.5180143,
            25.0487981
          ],
          [
            121.5180127,
            25.04879
          ],
          [
            121.5179989,
            25.0487237
          ],
          [
            121.5173573,
            25.0488283
          ],
          [
            121.5167752,
            25.0489232
          ],
          [
            121.5168024,
            25.0490443
          ],
          [
            121.5168339,
            25.0490397
          ],
          [
            121.5168339,
            25.0490397
          ],
          [
            121.5168049,
            25.0489087
          ],
          [
            121.5167068,
            25.0489255
          ],
          [
            121.5167068,
            25.0489255
          ],
          [
            121.5166007,
            25.0485588
          ],
          [
            121.5165803,
            25.0484614
          ],
          [
            121.5165803,
            25.0484614
          ],
          [
            121.5165688,
            25.0484002
          ],
          [
            121.5165688,
            25.0484002
          ],
          [
            121.5164898,
            25.0484141
          ],
          [
            121.5164513,
            25.0484209
          ],
          [
            121.5163904,
            25.0481268
          ],
          [
            121.5163336,
            25.047852
          ],
          [
            121.5162768,
            25.0475778
          ],
          [
            121.5162476,
            25.0474366
          ],
          [
            121.5161734,
            25.047445
          ],
          [
            121.5161498,
            25.0474479
          ],
          [
            121.5161257,
            25.0474507
          ],
          [
            121.5160222,
            25.0474628
          ]
        ]
      }
    },
    {
      "type": "Feature",
      "properties": {
        "case": "A",
        "origin": "N8",
        "destination": "S7",
        "horizontal_m": 463.4690333886606
      },
      "geometry": {
        "type": "LineString",
        "coordinates": [
          [
            121.5180178,
            25.0488154
          ],
          [
            121.5180143,
            25.0487981
          ],
          [
            121.5180127,
            25.04879
          ],
          [
            121.5179989,
            25.0487237
          ],
          [
            121.5173573,
            25.0488283
          ],
          [
            121.5167752,
            25.0489232
          ],
          [
            121.5168024,
            25.0490443
          ],
          [
            121.5168584,
            25.0492892
          ],
          [
            121.5168918,
            25.0494249
          ],
          [
            121.5168739,
            25.0495356
          ],
          [
            121.5167391,
            25.0495649
          ],
          [
            121.5165924,
            25.0495968
          ],
          [
            121.5165018,
            25.0496133
          ],
          [
            121.5163634,
            25.049041
          ],
          [
            121.51633,
            25.0489053
          ],
          [
            121.5162785,
            25.0486962
          ],
          [
            121.5162511,
            25.0486106
          ],
          [
            121.5162992,
            25.0486031
          ],
          [
            121.516425,
            25.0485775
          ],
          [
            121.5164537,
            25.0485732
          ],
          [
            121.5164825,
            25.0485689
          ],
          [
            121.5164792,
            25.0485529
          ],
          [
            121.5164792,
            25.0485529
          ],
          [
            121.5164758,
            25.0485369
          ],
          [
            121.5164758,
            25.0485369
          ],
          [
            121.5164542,
            25.0484345
          ],
          [
            121.5164542,
            25.0484345
          ],
          [
            121.5164513,
            25.0484209
          ],
          [
            121.5164513,
            25.0484209
          ],
          [
            121.5163904,
            25.0481268
          ],
          [
            121.5163336,
            25.047852
          ],
          [
            121.5163475,
            25.0478502
          ]
        ]
      }
    },
    {
      "type": "Feature",
      "properties": {
        "case": "B",
        "origin": "N8",
        "destination": "S7",
        "horizontal_m": 315.04019305784647
      },
      "geometry": {
        "type": "LineString",
        "coordinates": [
          [
            121.5180178,
            25.0488154
          ],
          [
            121.5180143,
            25.0487981
          ],
          [
            121.5180127,
            25.04879
          ],
          [
            121.5179989,
            25.0487237
          ],
          [
            121.5173573,
            25.0488283
          ],
          [
            121.5167752,
            25.0489232
          ],
          [
            121.5168024,
            25.0490443
          ],
          [
            121.5168339,
            25.0490397
          ],
          [
            121.5168339,
            25.0490397
          ],
          [
            121.5168049,
            25.0489087
          ],
          [
            121.5167068,
            25.0489255
          ],
          [
            121.5167068,
            25.0489255
          ],
          [
            121.5166007,
            25.0485588
          ],
          [
            121.5165803,
            25.0484614
          ],
          [
            121.5165803,
            25.0484614
          ],
          [
            121.5165688,
            25.0484002
          ],
          [
            121.5165688,
            25.0484002
          ],
          [
            121.5164898,
            25.0484141
          ],
          [
            121.5164513,
            25.0484209
          ],
          [
            121.5163904,
            25.0481268
          ],
          [
            121.5163336,
            25.047852
          ],
          [
            121.5163475,
            25.0478502
          ]
        ]
      }
    },
    {
      "type": "Feature",
      "properties": {
        "case": "A",
        "origin": "N8",
        "destination": "S8",
        "horizontal_m": 656.4287983581861
      },
      "geometry": {
        "type": "LineString",
        "coordinates": [
          [
            121.5180178,
            25.0488154
          ],
          [
            121.5180143,
            25.0487981
          ],
          [
            121.5180127,
            25.04879
          ],
          [
            121.5179989,
            25.0487237
          ],
          [
            121.5173573,
            25.0488283
          ],
          [
            121.5167752,
            25.0489232
          ],
          [
            121.5168024,
            25.0490443
          ],
          [
            121.5168584,
            25.0492892
          ],
          [
            121.5168918,
            25.0494249
          ],
          [
            121.5168739,
            25.0495356
          ],
          [
            121.5167391,
            25.0495649
          ],
          [
            121.5165924,
            25.0495968
          ],
          [
            121.5165018,
            25.0496133
          ],
          [
            121.5163634,
            25.049041
          ],
          [
            121.51633,
            25.0489053
          ],
          [
            121.5162785,
            25.0486962
          ],
          [
            121.5162511,
            25.0486106
          ],
          [
            121.5162992,
            25.0486031
          ],
          [
            121.516425,
            25.0485775
          ],
          [
            121.5164537,
            25.0485732
          ],
          [
            121.5164825,
            25.0485689
          ],
          [
            121.5164792,
            25.0485529
          ],
          [
            121.5164792,
            25.0485529
          ],
          [
            121.5164758,
            25.0485369
          ],
          [
            121.5164758,
            25.0485369
          ],
          [
            121.5164542,
            25.0484345
          ],
          [
            121.5164542,
            25.0484345
          ],
          [
            121.5164513,
            25.0484209
          ],
          [
            121.5164513,
            25.0484209
          ],
          [
            121.5164898,
            25.0484141
          ],
          [
            121.5165688,
            25.0484002
          ],
          [
            121.5167223,
            25.0483744
          ],
          [
            121.5167698,
            25.0483663
          ],
          [
            121.5172349,
            25.048288
          ],
          [
            121.5177108,
            25.0482079
          ],
          [
            121.5180021,
            25.0481588
          ],
          [
            121.5180349,
            25.0481521
          ],
          [
            121.5179747,
            25.0478712
          ],
          [
            121.517971,
            25.047854
          ],
          [
            121.5179125,
            25.0475813
          ],
          [
            121.5179114,
            25.0475758
          ],
          [
            121.5178584,
            25.0473288
          ],
          [
            121.5178288,
            25.0473339
          ]
        ]
      }
    },
    {
      "type": "Feature",
      "properties": {
        "case": "B",
        "origin": "N8",
        "destination": "S8",
        "horizontal_m": 483.84822080398254
      },
      "geometry": {
        "type": "LineString",
        "coordinates": [
          [
            121.5180178,
            25.0488154
          ],
          [
            121.5180143,
            25.0487981
          ],
          [
            121.5180127,
            25.04879
          ],
          [
            121.5179989,
            25.0487237
          ],
          [
            121.5173573,
            25.0488283
          ],
          [
            121.5167752,
            25.0489232
          ],
          [
            121.5168024,
            25.0490443
          ],
          [
            121.5168339,
            25.0490397
          ],
          [
            121.5168339,
            25.0490397
          ],
          [
            121.5168049,
            25.0489087
          ],
          [
            121.5167068,
            25.0489255
          ],
          [
            121.5167068,
            25.0489255
          ],
          [
            121.5166007,
            25.0485588
          ],
          [
            121.5165803,
            25.0484614
          ],
          [
            121.5165803,
            25.0484614
          ],
          [
            121.5165688,
            25.0484002
          ],
          [
            121.5165688,
            25.0484002
          ],
          [
            121.5167223,
            25.0483744
          ],
          [
            121.5167698,
            25.0483663
          ],
          [
            121.5172349,
            25.048288
          ],
          [
            121.5177108,
            25.0482079
          ],
          [
            121.5180021,
            25.0481588
          ],
          [
            121.5180349,
            25.0481521
          ],
          [
            121.5179747,
            25.0478712
          ],
          [
            121.517971,
            25.047854
          ],
          [
            121.5179125,
            25.0475813
          ],
          [
            121.5179114,
            25.0475758
          ],
          [
            121.5178584,
            25.0473288
          ],
          [
            121.5178288,
            25.0473339
          ]
        ]
      }
    }
  ]
}