{"type":"FeatureCollection","crs":{"type":"name","properties":{"name":"EPSG:4326"}},"features":[{"type":"Feature","id":12,"geometry":{"type":"Point","coordinates":[121.5137497929412,25.057007042297204]},"properties":{"ogr_fid":12,"ID":1960,"MID":62,"FIRSTROAD":"民生西路","SECONDROAD":"重慶北路二段","X":301003.65000000002,"Y":2772394.2200000002,"RDID":"I062.htm","URL":"http://163.29.251.188/botedata/網頁/流量調查/路口/I062.htm"}},{"type":"Feature","id":13,"geometry":{"type":"Point","coordinates":[121.50835948165299,25.056887518181348]},"properties":{"ogr_fid":13,"ID":1971,"MID":62,"FIRSTROAD":"民生西路","SECONDROAD":"環河北路一段","X":300459.84999999998,"Y":2772378.9199999999,"RDID":"I062.htm","URL":"http://163.29.251.188/botedata/網頁/流量調查/路口/I062.htm"}},{"type":"Feature","id":16,"geometry":{"type":"Point","coordinates":[121.52272270597955,25.054986534001547]},"properties":{"ogr_fid":16,"ID":2043,"MID":159,"FIRSTROAD":"長春路","SECONDROAD":"中山北路二段","X":301909.83000000002,"Y":2772173.8999999999,"RDID":"I159.htm","URL":"http://163.29.251.188/botedata/網頁/流量調查/路口/I159.htm"}},{"type":"Feature","id":17,"geometry":{"type":"Point","coordinates":[121.52548416705162,25.05493938161392]},"properties":{"ogr_fid":17,"ID":2047,"MID":160,"FIRSTROAD":"長春路","SECONDROAD":"林森北路","X":302188.46999999997,"Y":2772169.7599999998,"RDID":"I160.htm","URL":"http://163.29.251.188/botedata/網頁/流量調查/路口/I160.htm"}},{"type":"Feature","id":27,"geometry":{"type":"Point","coordinates":[121.51771108787003,25.0532653952916]},"properties":{"ogr_fid":27,"ID":2155,"MID":176,"FIRSTROAD":"南京西路","SECONDROAD":"承德路二段","X":301404.90999999997,"Y":2771981.3100000001,"RDID":"I176.htm","URL":"http://163.29.251.188/botedata/網頁/流量調查/路口/I176.htm"}},{"type":"Feature","id":28,"geometry":{"type":"Point","coordinates":[121.52255271534435,25.052253566472011]},"properties":{"ogr_fid":28,"ID":2188,"MID":178,"FIRSTROAD":"南京東路一段","SECONDROAD":"中山北路二段","X":301893.84999999998,"Y":2771871.1200000001,"RDID":"I178.htm","URL":"http://163.29.251.188/botedata/網頁/流量調查/路口/I178.htm"}},{"type":"Feature","id":29,"geometry":{"type":"Point","coordinates":[121.52540058586843,25.052124767626871]},"properties":{"ogr_fid":29,"ID":2196,"MID":180,"FIRSTROAD":"南京東路一段","SECONDROAD":"林森北路","X":302181.25,"Y":2771857.9700000002,"RDID":"I180.htm","URL":"http://163.29.251.188/botedata/網頁/流量調查/路口/I180.htm"}},{"type":"Feature","id":37,"geometry":{"type":"Point","coordinates":[121.51701614396623,25.050888973192933]},"properties":{"ogr_fid":37,"ID":2322,"MID":152,"FIRSTROAD":"長安西路","SECONDROAD":"承德路一段","X":301335.79999999999,"Y":2771717.8199999998,"RDID":"I152.htm","URL":"http://163.29.251.188/botedata/網頁/流量調查/路口/I152.htm"}},{"type":"Feature","id":38,"geometry":{"type":"Point","coordinates":[121.50678252851793,25.050861154599868]},"properties":{"ogr_fid":38,"ID":2344,"MID":59,"FIRSTROAD":"市民大道","SECONDROAD":"環河快速道路","X":300303.25,"Y":2771710.8199999998,"RDID":"I059.htm","URL":"http://163.29.251.188/botedata/網頁/流量調查/路口/I059.htm"}},{"type":"Feature","id":39,"geometry":{"type":"Point","coordinates":[121.52160984669429,25.04983777516393]},"properties":{"ogr_fid":39,"ID":2388,"MID":153,"FIRSTROAD":"長安東路一段","SECONDROAD":"中山北路一段","X":301799.75,"Y":2771603.1699999999,"RDID":"I153.htm","URL":"http://163.29.251.188/botedata/網頁/流量調查/路口/I153.htm"}},{"type":"Feature","id":41,"geometry":{"type":"Point","coordinates":[121.51332547269054,25.049402569893559]},"properties":{"ogr_fid":41,"ID":2402,"MID":57,"FIRSTROAD":"市民大道","SECONDROAD":"重慶北路一段","X":300964,"Y":2771551.8199999998,"RDID":"I057.htm","URL":"http://163.29.251.188/botedata/網頁/流量調查/路口/I057.htm"}},{"type":"Feature","id":42,"geometry":{"type":"Point","coordinates":[121.52455776752552,25.049129028320522]},"properties":{"ogr_fid":42,"ID":2416,"MID":154,"FIRSTROAD":"長安東路一段","SECONDROAD":"林森北路","X":302097.5,"Y":2771525.8199999998,"RDID":"I154.htm","URL":"http://163.29.251.188/botedata/網頁/流量調查/路口/I154.htm"}},{"type":"Feature","id":43,"geometry":{"type":"Point","coordinates":[121.51634817804904,25.048759261013654]},"properties":{"ogr_fid":43,"ID":2436,"MID":52,"FIRSTROAD":"市民大道","SECONDROAD":"承德路一段","X":301269.27000000002,"Y":2771481.73,"RDID":"I052.htm","URL":"http://163.29.251.188/botedata/網頁/流量調查/路口/I052.htm"}},{"type":"Feature","id":46,"geometry":{"type":"Point","coordinates":[121.52089261830936,25.04839036572486]},"properties":{"ogr_fid":46,"ID":2466,"MID":50,"FIRSTROAD":"市民大道","SECONDROAD":"中山北路一段","X":301728,"Y":2771442.5699999998,"RDID":"I050.htm","URL":"http://163.29.251.188/botedata/網頁/流量調查/路口/I050.htm"}},{"type":"Feature","id":197,"geometry":{"type":"Point","coordinates":[121.52426038669628,25.047998843522368]},"properties":{"ogr_fid":197,"ID":2546,"MID":54,"FIRSTROAD":"市民大道","SECONDROAD":"林森北路一段","X":302067.97999999998,"Y":2771400.52,"RDID":"I054.htm","URL":"http://163.29.251.188/botedata/網頁/流量調查/路口/I054.htm"}},{"type":"Feature","id":199,"geometry":{"type":"Point","coordinates":[121.51325571560703,25.047278959985153]},"properties":{"ogr_fid":199,"ID":2587,"MID":125,"FIRSTROAD":"忠孝西路一段","SECONDROAD":"重慶北路一段","X":300957.84999999998,"Y":2771316.5699999998,"RDID":"I125.htm","URL":"http://163.29.251.188/botedata/網頁/流量調查/路口/I125.htm"}},{"type":"Feature","id":200,"geometry":{"type":"Point","coordinates":[121.50939177126118,25.047099618921237]},"properties":{"ogr_fid":200,"ID":2610,"MID":23,"FIRSTROAD":"中華路一段","SECONDROAD":"洛陽街","X":300568.04999999999,"Y":2771295.2200000002,"RDID":"I023.htm","URL":"http://163.29.251.188/botedata/網頁/流量調查/路口/I023.htm"}},{"type":"Feature","id":201,"geometry":{"type":"Point","coordinates":[121.51497582638436,25.046866351246123]},"properties":{"ogr_fid":201,"ID":2612,"MID":126,"FIRSTROAD":"忠孝西路一段","SECONDROAD":"館前路","X":301131.59000000003,"Y":2771271.5299999998,"RDID":"I126.htm","URL":"http://163.29.251.188/botedata/網頁/流量調查/路口/I126.htm"}},{"type":"Feature","id":210,"geometry":{"type":"Point","coordinates":[121.50885824863529,25.045233963022763]},"properties":{"ogr_fid":210,"ID":2764,"MID":25,"FIRSTROAD":"中華路一段","SECONDROAD":"漢口街二段","X":300515,"Y":2771088.3700000001,"RDID":"I025.htm","URL":"http://163.29.251.188/botedata/網頁/流量調查/路口/I025.htm"}},{"type":"Feature","id":212,"geometry":{"type":"Point","coordinates":[121.52340035182246,25.044840199110141]},"properties":{"ogr_fid":212,"ID":2789,"MID":131,"FIRSTROAD":"忠孝東路一段","SECONDROAD":"林森南路","X":301982.53000000003,"Y":2771050.3799999999,"RDID":"I131.htm","URL":"http://163.29.251.188/botedata/網頁/流量調查/路口/I131.htm"}},{"type":"Feature","id":219,"geometry":{"type":"Point","coordinates":[121.50822643564183,25.042485230275307]},"properties":{"ogr_fid":219,"ID":2989,"MID":26,"FIRSTROAD":"中華路一段","SECONDROAD":"衡陽路","X":300452.40000000002,"Y":2770783.6699999999,"RDID":"I026.htm","URL":"http://163.29.251.188/botedata/網頁/流量調查/路口/I026.htm"}},{"type":"Feature","id":221,"geometry":{"type":"Point","coordinates":[121.51316534550807,25.042333697455124]},"properties":{"ogr_fid":221,"ID":3009,"MID":230,"FIRSTROAD":"重慶南路一段","SECONDROAD":"衡陽路","X":300950.79999999999,"Y":2770768.77,"RDID":"I230.htm","URL":"http://163.29.251.188/botedata/網頁/流量調查/路口/I230.htm"}}]}